ship_type,SHIPNAME,LAT,LON,LAT_NEXT,LON_NEXT,distance
Cargo,. PRINCE OF WAVES,59.86983,30.21433,59.86867,30.22017,350.956493889483
Cargo,AALDERDIJK,59.91311,30.04307,59.91685,30.02478,1102.2815338446
Cargo,ADAMAS,55.72534,20.85354,55.71969,20.8096,2825.71735188401
Cargo,ADASTRA,59.90572,30.08003,59.91283,30.04498,2110.27201085269
Cargo,ADELE,55.72617,21.08768,55.7167,21.10772,1640.11914332526
Cargo,ADELINA D,57.6635,11.77983,57.6565,11.75017,1930.49406858018
Cargo,AFRICAN CENDANA,55.73175,20.84616,55.73155,20.86157,966.164973735507
Cargo,AFRICAN GROUSE,55.11497,19.95943,55.73736,20.80092,87325.4411972054
Cargo,AFRICAN MAGNOLIA,54.68829,20.21381,54.68866,20.21182,134.508117262268
Cargo,AGNETHE ARCTICA,54.36948,18.665,54.36469,18.66545,534.01841415648
Cargo,AGOT,55.7237,21.09678,55.71589,21.10918,1166.33356462175
Cargo,AKACIA,54.46332,18.9992,54.66873,19.80998,57104.5007866035
Cargo,AKERDIJK,54.65897,19.83891,54.65045,19.86151,1737.16911465824
Cargo,ALANA,55.86231,20.83628,55.8785,20.8175,2150.34253114589
Cargo,ALANA EVITA,54.66463,19.82511,54.5491,18.98915,55410.7859551471
Cargo,ALEXANDER B,54.68479,18.95132,54.66798,18.93716,2081.42673970629
Cargo,ALLEGRA,59.90941,30.06115,59.91301,30.04308,1085.17852610502
Cargo,ALMENDRO,59.90667,30.0754,59.91003,30.05895,991.402615090742
Cargo,AMANDA,57.99846,11.75718,57.60223,11.78932,44149.3043213357
Cargo,AMATHUS,55.7091,21.12082,55.70917,21.1208,7.892673790227
Cargo,AMBAL,55.176,19.87267,54.6685,19.80217,56674.3781440913
Cargo,AMBER SPIRIT,54.65795,19.84142,54.63288,19.89483,4429.92403631227
Cargo,AMELAND,54.633,19.89367,54.64067,20.02383,8429.16353247522
Cargo,AMERDIJK,54.63272,19.89502,54.655,19.8496,3835.55578833081
Cargo,ANDALUCIA STAR,57.9162,11.63816,57.93881,11.68675,3818.92077926203
Cargo,ANETTA,55.73262,20.98763,55.7312,21.01329,1616.12330379409
Cargo,ANGLIA SEAWAYS,54.79479,18.94468,54.78513,18.9612,1510.18230707738
Cargo,ANGORA,55.70655,20.80155,55.70835,20.81501,867.658220689811
Cargo,ANINA,57.6115,11.634,57.61167,11.6025,1878.40756238583
Cargo,ANJELIERSGRACHT,57.94062,11.68803,57.93012,11.67011,1577.25488444277
Cargo,ANNAMARIE,57.61783,11.6745,57.63334,11.69167,2007.09903882123
Cargo,APL MERLION,54.7311,18.99907,54.51431,18.99619,24133.6662003012
Cargo,ARA ROTTERDAM,55.00592,19.83046,55.61112,20.80787,91506.433681232
Cargo,ARETHOUSA,54.52544,18.99381,54.51316,18.98008,1629.6349024777
Cargo,ARION,54.52898,18.55068,54.55957,18.5508,3405.27203973875
Cargo,ARK FORWARDER,57.67988,11.81698,57.61075,11.62227,13920.1633069232
Cargo,ASIAN BREEZE,57.95189,11.70251,57.94259,11.69145,1224.2184372048
Cargo,ASIAN VISION,57.9181,11.60256,57.91386,11.62603,1465.8211542629
Cargo,ASKOE,54.54969,18.81589,54.52776,18.78247,3258.53754484997
Cargo,ASPEN,57.64979,11.71182,57.655,11.7413,1849.19204823902
Cargo,ASTRORUNNER,57.60032,11.65497,57.6118,11.62322,2284.40804530965
Cargo,ATLANTIC CARTIER,57.63336,11.69312,57.64611,11.70513,1589.51152682797
Cargo,ATLANTIC NAVIGATORII,59.92031,30.00699,59.91606,30.02813,1270.89862437158
Cargo,ATLANTIC RUNNER,59.90295,30.22353,59.90658,30.22843,487.955308139916
Cargo,ATROTOS HERACLES,54.61001,18.91085,54.62413,18.92408,1788.26495055165
Cargo,AUTO BAY,59.90988,30.05801,59.91502,30.0328,1518.79684430855
Cargo,AUTUMN WAVE,59.91349,30.04114,59.91713,30.02283,1099.1532709147
Cargo,AVELONA STAR,59.91896,30.01413,59.9152,30.03243,1103.58091156582
Cargo,BALDER,55.66048,21.14977,55.67568,21.14048,1789.7586280234
Cargo,BALTIC HEATHER,59.9126,30.04639,59.90739,30.07238,1562.1813362464
Cargo,BALTIC PATRIOT,59.91237,30.04677,59.90835,30.06593,1159.19162748414
Cargo,BALTIC PERFORMER,59.91117,30.05283,59.9075,30.07083,1084.51304422309
Cargo,BALTIC PIONEER,59.91522,30.03235,59.91264,30.04653,841.816146354841
Cargo,BALTIC PRIME,59.91137,30.23448,59.90623,30.22779,683.236714671209
Cargo,BALTICA,57.6458,11.70329,57.63161,11.68412,1949.33559775101
Cargo,BALTICA HAV,54.57626,18.85364,54.56953,18.84389,978.315204551399
Cargo,BALTIYSK,54.67425,19.80733,54.98353,19.80258,34430.2393251217
Cargo,BALTIYSKIY-202,54.46891,18.71478,54.50566,18.77121,5481.89688442736
Cargo,BARMBEK,59.91767,30.02017,59.9205,30.006,851.08024583312
Cargo,BBS SKY,57.94067,11.69033,57.93184,11.67667,1271.94063767476
Cargo,BEATA,54.6795,19.80137,55.13744,19.81967,50991.0976068189
Cargo,BEGONIA SEAWAYS,57.65199,11.72603,57.65701,11.75727,1942.71678639265
Cargo,BEKAU,55.71568,21.1116,55.72531,21.0928,1593.30112791287
Cargo,BELBEK,59.91674,30.02597,59.92099,30.00478,1273.46590947794
Cargo,BELIZIA,54.382,18.655,54.38212,18.65497,13.4991796273842
Cargo,BF CARTAGENA,59.90217,30.09717,59.90683,30.07483,1350.62060833795
Cargo,BF FORTALEZA,59.90128,30.1009,59.8981,30.11638,933.914734458693
Cargo,BF VICTORIA,55.73117,20.83533,55.731,20.8115,1493.8207647946
Cargo,BIRTHE BRES,57.66332,11.77958,57.67889,11.81503,2730.90748320524
Cargo,BIRYUZA,55.72635,21.08929,55.71579,21.10976,1740.41571409746
Cargo,BLUE CHIP,55.73701,20.85337,55.73779,20.82914,1521.00822864841
Cargo,BLUEBILL,59.90845,30.0658,59.90621,30.07703,674.587266415356
Cargo,BOGDAN,54.38472,18.66143,54.78593,18.98923,49415.317785921
Cargo,BOMAR MOON,55.70339,21.12785,55.7036,21.1275,32.0697407123641
Cargo,BOMAR VALOUR,59.90634,30.07622,59.90339,30.09083,879.161527039375
Cargo,BOMAR VANQUISH,59.91869,30.01528,59.92179,30.00003,918.17474278346
Cargo,BOREAS,59.9026,30.09501,59.91052,30.05665,2315.54973621134
Cargo,BOTNIA SEAWAYS,55.73257,20.92661,55.73097,20.88806,2422.88613310341
Cargo,BRIGGA,55.72816,21.07761,55.72371,21.09603,1256.51571555802
Cargo,BRIN NAVOLOK,59.91186,30.04835,59.9073,30.07146,1386.10514300143
Cargo,CALISTO,59.921,30.0035,54.50609,18.98727,894802.444721743
Cargo,CAROLINA,57.89535,12.03937,57.94847,12.08942,6612.2703809113
Cargo,CATHARINA SCHULTE,54.53396,18.55884,54.52669,18.56057,816.971733484648
Cargo,CEMISLE,55.65001,21.15734,55.64794,21.16266,405.913833537145
Cargo,CEMSOL,55.81088,20.8829,55.82241,20.86578,1671.50326853927
Cargo,CHARLOTTA B,59.91285,30.04415,59.90677,30.07293,1743.02528565388
Cargo,CHAROITE,59.90694,30.07371,59.91104,30.05359,1212.16129134736
Cargo,CHRISTOPHER,59.89513,30.1313,59.89845,30.11499,982.780549699824
Cargo,CITY OF ROME,57.61467,11.66392,57.62616,11.68129,1645.6804507862
Cargo,CITY OF ROTTERDAM,59.90517,30.08229,59.91029,30.05716,1514.00724518494
Cargo,CONMAR AVENUE,59.9152,30.03259,59.91145,30.05126,1122.40622083922
Cargo,CONTAINERSHIPS 6,55.69683,21.12467,55.67983,21.1375,2056.56449764007
Cargo,CONTAINERSHIPS VII,55.77592,20.91944,55.75791,20.94193,2450.12414651174
Cargo,DANUBE HIGHWAY,59.91788,30.01961,59.92139,30.00262,1025.32471466699
Cargo,DANUBIA,57.65377,11.72674,57.61215,11.66631,5868.12005064412
Cargo,DELPHIS BOTHNIA,59.91929,30.01159,54.67177,19.80285,845794.268978389
Cargo,DIJKSGRACHT,55.72404,21.02729,55.72994,21.00316,1649.09638604876
Cargo,DINTELBORG,54.68567,20.22827,54.68526,20.17245,3592.29915890973
Cargo,DONGEBORG,54.74545,18.9621,54.73329,18.95905,1367.76214742204
Cargo,DORNUM,54.6854,18.9296,54.69305,18.91599,1221.5149969885
Cargo,DT BROSON,57.62032,11.80844,57.60002,11.61614,11687.634939924
Cargo,DURBAN STAR,59.91245,30.04652,59.9155,30.03153,902.786298572201
Cargo,E.R. TALLINN,54.53731,18.75813,54.53782,18.73003,1815.70171153739
Cargo,E.R. VISBY,59.91897,30.01236,59.91523,30.03065,1102.22117576254
Cargo,EIRA,59.91333,30.043,59.9085,30.066,1391.67994842163
Cargo,EKEN,57.99507,12.12761,57.98357,12.12594,1283.96129716638
Cargo,EMILIA,54.68553,20.174,54.68555,20.23076,3652.49200267757
Cargo,EMOTION,54.79411,18.97551,55.73155,20.80289,155958.098892865
Cargo,EMSRUNNER,55.65434,21.15783,55.65417,21.158,21.7284183468692
Cargo,ENFORCER,54.53519,18.59532,54.53548,18.55798,2411.91903946403
Cargo,ESL AFRICA,55.84693,20.80334,55.83699,20.81754,1418.49173702036
Cargo,EYSTNES,59.91605,30.02825,59.91299,30.04387,935.846782969346
Cargo,FALKBRIS,54.6695,19.82589,54.63331,19.89368,5940.65982571314
Cargo,FAST HERMAN,59.89684,30.21549,59.91337,30.22852,1978.63897990516
Cargo,FAUST,57.66729,11.78699,57.65933,11.76567,1548.14641551934
Cargo,FEDERAL CEDAR,59.91945,30.01142,59.91489,30.03413,1365.08681783224
Cargo,FEDERAL SATSUKI,57.60059,11.69063,57.60081,11.69005,42.3863055968595
Cargo,FEHN LIGHT,54.68486,20.17102,54.68565,20.22589,3531.99011185848
Cargo,FEHN POLLUX,59.91251,30.04595,59.90938,30.0614,929.995044092693
Cargo,FICARIA SEAWAYS,57.65739,11.75459,57.65243,11.72356,1928.79886478893
Cargo,FINNHAWK,59.91904,30.01286,59.91375,30.03851,1547.68857829503
Cargo,FINNKRAFT,54.6725,18.99983,54.79053,18.89155,14868.5700969393
Cargo,FINNMILL,59.91888,30.01486,59.92145,30.002,772.444371032367
Cargo,FINNPULP,54.67507,18.94194,54.66213,18.93311,1548.5787217859
Cargo,FINNTIDE,59.89004,30.15668,59.88737,30.17005,803.655567471999
Cargo,FINNWAVE,59.90972,30.06001,59.91424,30.03777,1339.27771476096
Cargo,FITTER,59.9109,30.26538,59.90627,30.27033,584.786747457552
Cargo,FJORDVIK,54.53645,18.51995,54.53627,18.5201,22.2566224058551
Cargo,FOREST,54.6327,19.90475,54.64883,19.86498,3128.58157324127
Cargo,FORSETI,55.71317,21.11337,55.72543,21.09268,1882.95821988067
Cargo,FRANCISCA,54.54143,18.52991,54.54131,18.52987,13.6057983387216
Cargo,FREDERIK,55.19833,19.88672,55.7121,20.80083,81242.2906617496
Cargo,FREESIA SEAWAYS,57.62766,11.68233,57.64865,11.70891,2822.77111731458
Cargo,FREYA,57.67333,11.798,57.66083,11.77167,2096.12167554962
Cargo,FRI OCEAN,54.74643,18.75352,54.7537,18.73457,1461.92766369193
Cargo,FRI PORSGRUNN,59.90734,30.07189,59.90305,30.09235,1237.88791112611
Cargo,FRI STREAM,55.73333,20.90433,55.73383,20.8565,2998.38264233167
Cargo,FRIGGA,55.7151,21.10993,55.72581,21.09032,1712.6396932289
Cargo,GALAN,55.72813,21.07358,55.72822,21.05804,974.195123642309
Cargo,GENCO RELIANCE,55.71255,20.84023,55.7138,20.84608,392.358584834383
Cargo,GENCO THUNDER,54.57504,18.88104,54.58765,18.89527,1677.28677816254
Cargo,GEOR.POBEDONOSETS,59.90687,30.07317,59.90361,30.08928,969.711654634306
Cargo,GRAND,55.71623,21.1096,55.72425,21.09582,1242.39343962483
Cargo,GRANDE EUROPA,57.9532,11.70476,57.93951,11.68789,1820.93174236095
Cargo,GRANDE MEDITERRANEO,57.93787,11.68484,57.92467,11.6568,2214.88349721425
Cargo,GREEN ATLANTIC,55.72941,20.89913,55.72839,20.93926,2518.11190035474
Cargo,GREEN MALOY,54.67597,18.97043,54.70317,18.98531,3175.65570055293
Cargo,GUTE,57.60435,11.60661,57.69635,11.91565,21065.1880688657
Cargo,HANNA,57.6785,11.80817,57.66417,11.7795,2336.16949717552
Cargo,HAUKUR,55.72101,21.10265,55.72609,21.08812,1072.19516935747
Cargo,HEINA,54.72828,18.9864,54.6917,18.99523,4111.47188307902
Cargo,HEINRICH SCHEPERS,59.90049,30.1049,59.90443,30.08541,1173.08354400607
Cargo,HELGA,55.72045,21.10403,55.7266,21.08808,1211.86862451488
Cargo,HELGE,57.98425,11.75003,57.99721,11.76468,1681.852592577
Cargo,HELT,54.68167,20.16127,54.68575,20.22571,4171.68211754028
Cargo,HENDRIKA MARGARETHA,57.92032,11.60437,54.79905,18.5848,552737.48669579
Cargo,HENNEKE RAMBOW,59.90027,30.10585,59.90508,30.08266,1400.91057648479
Cargo,HOEGH TRIDENT,57.66784,11.78583,57.65933,11.76417,1600.24883818452
Cargo,HOOD ISLAND,59.90839,30.06607,59.90368,30.08942,1404.85384167659
Cargo,HOOGE,59.9176,30.02119,59.91205,30.04817,1627.40010807878
Cargo,HVITANES,59.91454,30.03516,59.91746,30.02093,858.004960683864
Cargo,ICE RIVER,59.86879,30.22008,59.86925,30.21973,54.8148566843358
Cargo,ICE RUNNER,57.64557,11.70243,57.63196,11.68386,1876.08714866952
Cargo,ICELAND CEMENT,57.69333,11.90667,57.68828,11.89038,1120.46830140781
Cargo,IDA H,57.91244,12.0521,57.93297,12.067,2449.26628404507
Cargo,IDUNA,54.70171,18.99737,54.75998,18.99467,6488.90800389333
Cargo,INA LOTTE,59.91727,30.02257,59.91415,30.03794,925.324515046738
Cargo,IRIS BOLTEN,55.62799,20.80453,54.69598,18.99102,155116.907937662
Cargo,IVAN SHCHEPETOV,54.6701,20.14155,54.70267,20.45184,20293.1652999147
Cargo,IVS KITE,55.73795,20.83695,55.73813,20.81173,1580.67358120879
Cargo,JADE,55.68204,20.84196,55.69443,20.88115,2819.55955381229
Cargo,JETTEN GBG STAD VA,57.60263,11.79241,57.65103,11.79379,5388.49117579613
Cargo,JOMI,57.92633,11.655,57.93277,11.67727,1498.86125719657
Cargo,JONNI RITSCHER,57.60165,11.66195,57.61271,11.67293,1394.49188483912
Cargo,JSP ROVER,54.60287,18.88745,54.58729,18.87202,1999.56909147333
Cargo,JUNO,54.52653,18.80179,54.53614,18.81624,1419.73019882694
Cargo,K1,54.54105,18.56006,54.54105,18.56006,0
Cargo,KAIE,59.92081,30.00438,59.91813,30.01789,810.683915661447
Cargo,KAPITAN MIRONOV,59.91975,30.01034,59.91663,30.02603,941.838457701937
Cargo,KAPITAN YAKOVLEV,59.9024,30.09604,59.90648,30.07582,1216.64413066454
Cargo,KAREN C,54.53817,18.68033,54.53733,18.6585,1412.96259972169
Cargo,KAROLI,54.5644,18.83774,54.54369,18.80568,3098.18940038824
Cargo,KEGUMS,59.91596,30.02845,59.91918,30.01302,932.605617475138
Cargo,KERLI,54.73725,18.97902,54.76132,18.98187,2685.70948317424
Cargo,KNOSSOS,59.89617,30.21417,59.89115,30.20763,667.565467161262
Cargo,KONYA,55.72832,21.06178,55.72777,21.08245,1297.17385392188
Cargo,KOZNITZA,54.63397,19.93747,54.6377,19.98747,3248.07546359197
Cargo,KYMOPOLIA,54.4211,18.846,54.42725,18.89543,3273.64340019776
Cargo,LADY AMI,57.98264,12.12585,57.99671,12.12702,1567.78605570034
Cargo,LANTAU ARROW,54.5937,18.8818,54.57534,18.85512,2671.98107340956
Cargo,LARGONA,55.65171,21.15729,55.6684,21.14289,2066.28978648305
Cargo,LAVAUX,59.90585,30.07876,59.90895,30.06353,917.44537287102
Cargo,LAZURITE,59.91562,30.03036,59.91127,30.052,1301.09621266185
Cargo,LECKO,57.61483,11.67417,57.65167,11.72317,5034.39480992664
Cargo,LILY-B,54.76496,18.98556,54.76741,18.95644,1889.92199556495
Cargo,LINDA,55.8541,20.839,55.83518,20.86139,2528.6602792876
Cargo,LINGEDIJK,54.40303,18.67678,54.50918,18.78108,13608.3680664306
Cargo,LISA,54.55636,18.82552,54.54704,18.81022,1432.5292447975
Cargo,LISA D,54.7411,18.74127,54.73518,18.7587,1299.63802464349
Cargo,LISTER,59.92163,30.00039,59.91781,30.01933,1139.10323932719
Cargo,LIV KRISTIN,54.6979,18.96096,54.71239,18.92755,2686.9209138275
Cargo,LIVA GRETA,54.67803,18.99798,55.66075,20.80509,158636.853402136
Cargo,LORD BYRON,54.53497,18.52835,54.53465,18.52815,37.8920924336595
Cargo,LURO,57.8895,12.03617,57.87833,12.0275,1345.14499222918
Cargo,LYRA,55.66217,21.14783,55.67367,21.14067,1356.80475530897
Cargo,MAERSK NIAMEY,59.91205,30.04847,59.92105,30.0033,2712.31011031812
Cargo,MAERSKMCKINNEYMOLLER,54.45481,18.99613,54.78387,18.98247,36641.3710793647
Cargo,MAGNOLIA SEAWAYS,57.61156,11.66525,57.62883,11.68972,2413.29295254316
Cargo,MARIS,54.73133,18.7965,54.54233,18.5095,28009.8704828783
Cargo,MARNE,54.38641,18.67165,54.38618,18.67183,28.1368976441457
Cargo,MAUREEN S,55.71506,21.11333,55.72418,21.09668,1456.20721963587
Cargo,MELUSINE,57.67873,11.7854,57.68228,11.83933,3233.92584096325
Cargo,MERI,54.4373,18.65869,54.45842,18.69403,3280.21260629561
Cargo,MERITA,54.67559,19.80014,55.10017,19.80171,47264.1362994666
Cargo,MIKHAIL DUDIN,59.91255,30.04623,59.90845,30.06624,1206.4289013439
Cargo,MIKHAIL LOMONOSOV,59.89796,30.11797,59.90219,30.09733,1244.78575346297
Cargo,MILAN EXPRESS,59.92189,30.00013,54.799,18.99783,870758.400318458
Cargo,MINERVA,57.69083,11.90092,57.69861,11.9183,1348.77116984135
Cargo,MIRVA VG,54.65864,19.83358,54.64986,19.86447,2216.43376558663
Cargo,MISANA,59.91617,30.02817,59.912,30.04833,1217.02062076226
Cargo,MISTRAL,55.68801,21.13291,55.70358,21.12029,1905.52189701251
Cargo,MITO STRAIT,57.67717,11.75267,57.67783,11.71817,2054.78073674873
Cargo,MODULUS 2,59.87159,30.21377,59.91857,30.01613,12211.9621426075
Cargo,MOL QUINTET,54.46572,18.99627,57.60555,11.66162,574153.307288814
Cargo,MSC AMY,57.68117,11.8255,57.67567,11.80383,1427.72469074053
Cargo,MSC MANDRAKI,55.72787,20.85677,55.72766,20.88405,1710.25736207076
Cargo,MSC MATILDE,54.65747,18.95536,55.74283,20.81294,168883.038235232
Cargo,MSC OSCAR,57.67958,11.79725,57.67819,11.77309,1446.26824670219
Cargo,MSC SABRINA,59.88975,30.15704,59.89602,30.1267,1832.32609829081
Cargo,MSC SANTHYA,59.91933,30.01209,59.91667,30.02511,784.514045201786
Cargo,MULTIMAR,54.78885,18.91414,54.78098,18.93245,1465.94293855861
Cargo,NACC TORONTO,54.63306,19.89324,54.64939,19.86546,2550.91951418396
Cargo,NAVEN,57.95989,11.71741,57.93928,11.68787,2882.51800558412
Cargo,NAVI BALTIC,55.72889,21.0307,55.72868,21.05503,1525.31065279894
Cargo,NBAAR MOON,55.70363,21.12763,55.70358,21.12755,7.49405869421927
Cargo,NBP CARRIER,54.63794,19.88478,54.65233,19.85667,2417.55548819845
Cargo,NEWYORKER,57.60207,11.62982,57.60668,11.6594,1837.29920455541
Cargo,NIKOLAS,59.92066,30.00638,59.91663,30.02644,1205.83742774811
Cargo,NINA 1,54.53569,18.56993,54.53049,18.53539,2304.85430548579
Cargo,NJORD,59.90236,30.09618,59.90729,30.07167,1474.11115787845
Cargo,NORDEROOG,59.88723,30.17037,59.90061,30.10557,3912.88276883273
Cargo,NORDIC ACE,57.67709,11.73576,57.67521,11.70776,1679.73212397331
Cargo,NORDIC HAMBURG,59.9152,30.03243,59.91153,30.05079,1103.03572324703
Cargo,NORDIC PHILIP,54.63322,19.89455,54.63261,19.91726,1464.85150978237
Cargo,NOVAYA ZEMLYA,59.90448,30.08493,59.90933,30.06114,1433.43309334706
Cargo,NURI SONAY,54.79419,18.91866,54.78623,18.93298,1276.69216216942
Cargo,OCEAN RAINBOW,55.72824,21.05654,55.7255,21.09081,2169.87269856892
Cargo,OCEAN VOYAGER,54.74373,18.99928,54.76856,18.99601,2772.03321818328
Cargo,OLGA,54.64677,20.06415,54.63303,19.92508,9088.80157545195
Cargo,OMSKIY-132,59.91209,30.04754,59.91593,30.02891,1124.08613578729
Cargo,OMSKIY-134,59.9176,30.02091,59.91987,30.01001,658.588686290525
Cargo,OMSKIY-140,54.66514,18.95891,54.67465,18.96738,1190.81338040679
Cargo,OMSKIY-141,54.65581,19.84741,54.63283,19.91191,4879.15141789843
Cargo,OOCL RAUMA,59.91561,30.03031,59.91059,30.05536,1505.49461645731
Cargo,OSTEREMS,59.9116,30.05038,59.90803,30.06803,1062.2152247602
Cargo,PACIFIC CALM,55.72888,21.04194,55.72864,21.05701,945.044654464926
Cargo,PACIFIC WINTER,59.89372,30.21974,59.89337,30.21968,39.1056037141513
Cargo,PAPUA,59.88899,30.16134,59.89198,30.14679,878.059929390789
Cargo,PAULINE RUSS,59.913,30.0425,59.9175,30.02117,1291.38062495978
Cargo,PETER PAN,54.76785,18.99642,54.72048,18.99044,5287.18597826406
Cargo,PETUNIA SEAWAYS,57.65259,11.72198,57.64103,11.69722,1957.43782210047
Cargo,PHANTOM,59.92157,30.00041,54.78657,18.99969,871651.093967599
Cargo,PHOENIX II,54.45469,18.99999,54.67082,19.80477,57244.9000906938
Cargo,PINTA,57.8814,12.02976,57.87129,12.02258,1203.01744217641
Cargo,PIRITA,59.87837,30.22568,59.87857,30.22628,40.2388934773966
Cargo,PITZTAL,59.902,30.09755,59.90575,30.07908,1112.32547916743
Cargo,PL 2,59.91915,30.26153,59.91596,30.26248,359.043766806268
Cargo,PLYCA,59.91821,30.018,59.92117,30.0038,858.074473291181
Cargo,POLA MUROM,59.91764,30.021,59.92054,30.00686,852.445787262123
Cargo,POLA UGLICH,59.91687,30.02371,59.9132,30.04201,1099.87852572029
Cargo,PORT ALFRED,59.89608,30.22709,59.89599,30.22679,19.5179535188601
Cargo,PRIMA FORTUNA,55.71674,21.11054,55.72672,21.08698,1848.28737753979
Cargo,PRIMULA SEAWAYS,57.63254,11.69205,57.65028,11.71538,2414.94735894293
Cargo,PRINCE OF WAVES,59.912,30.04717,59.917,30.0235,1433.35202340263
Cargo,PRINCESSE OUI,59.88755,30.19603,59.88584,30.18079,872.184610125361
Cargo,PRISCILLA,57.60335,11.61722,57.60552,11.60822,588.617697101487
Cargo,RAMONA,57.65665,11.74505,57.6536,11.7282,1059.42317549725
Cargo,REINBEK,59.90187,30.09799,59.90487,30.08347,876.642437329822
Cargo,RIG,55.72821,21.06735,55.71651,21.10869,2900.68026014042
Cargo,RIX STAR,54.61718,18.89862,54.59549,18.87928,2717.49760565119
Cargo,RMS RAHM,54.44592,18.64606,54.40318,18.67552,5126.08484243735
Cargo,ROBIN WIND,54.7093,18.99832,54.776,18.98992,7444.6042905225
Cargo,ROJAREK NAREE,54.55322,18.83907,54.56457,18.85662,1696.98010976924
Cargo,ROZTOCZE,59.91028,30.05664,59.91451,30.03557,1266.63526901005
Cargo,RUBYN,55.71498,21.11143,55.72585,21.09099,1762.55536316885
Cargo,RUSICH-10,54.69913,20.45422,54.69956,20.45387,52.8980160610167
Cargo,RUTH,59.91788,30.0202,59.91236,30.0471,1621.99050296228
Cargo,SAFFIER,55.73774,20.87151,55.73665,20.8532,1153.91650410961
Cargo,SAMUR-3,54.6333,19.89325,54.96338,20.31154,45504.0996991743
Cargo,SAN REMO,55.70337,21.11962,55.7276,21.08277,3551.72896848537
Cargo,SANDETTIE,54.40707,18.65818,54.75603,18.96664,43646.5592404995
Cargo,SANTA URSULA,54.72224,18.99694,54.76309,18.99629,4547.59301898121
Cargo,SAT AIS,59.94102,30.25615,59.94093,30.25605,11.4658680632919
Cargo,SAXUM,55.71747,21.10957,55.72813,21.0776,2329.29383039952
Cargo,SCA TUNADAL,59.90543,30.08021,59.909,30.06243,1069.01936603979
Cargo,SCHIEBORG,57.61017,11.63217,57.6165,11.66683,2183.46897404493
Cargo,SCHUYLER TRADER,54.77647,18.9374,54.78593,18.92086,1495.48511573722
Cargo,SEAGARD,59.91272,30.04566,59.90843,30.06649,1256.7932090467
Cargo,SEASTAR ENDURANCE,54.61761,18.89918,54.59955,18.88429,2227.86830234825
Cargo,SELENE PRAHM,54.37166,18.664,54.38306,18.66144,1279.85104207568
Cargo,SERDOLIK,59.89773,30.11893,59.90051,30.10529,821.993070642106
Cargo,SEROJA EMPAT,57.60493,11.65567,57.60117,11.60028,3330.03339823231
Cargo,SEVERNAYA ZEMLYA,59.92015,30.00817,59.91731,30.02217,842.700766132505
Cargo,SILVER FJORD,55.72566,20.80205,55.15951,20.15566,75085.0779540625
Cargo,SILVER PEARL,59.91338,30.04178,59.90694,30.07326,1897.55853612624
Cargo,SKAGENBANK,57.61919,11.68127,57.63065,11.69334,1464.61053700023
Cargo,SLINGEBORG,57.62883,11.67933,57.61417,11.6575,2087.2803510367
Cargo,SM-PRC-107,54.35757,18.67409,54.35765,18.67402,9.99639218032857
Cargo,SOLONG,59.91267,30.04487,59.91005,30.05787,781.943370952598
Cargo,SOMERSET,57.67833,11.72617,57.669,11.69333,2213.64531255886
Cargo,SORMOVSKIY 3064,54.68362,20.32903,54.6857,20.2302,6364.03604340431
Cargo,SORMOVSKIY-3055,54.67454,18.99002,54.65482,19.8098,52825.071028014
Cargo,SORMOVSKIY-3056,59.91097,30.05295,59.9072,30.07142,1113.01311799333
Cargo,SORMOVSKIY-3058,54.6664,20.13557,54.6326,19.90259,15470.0448974959
Cargo,SORMOVSKIY-3068,54.65437,20.11265,54.70193,20.4587,22892.8716333062
Cargo,SORMOVSKIY-53,59.9087,30.06449,59.90277,30.09381,1764.7089385265
Cargo,SPANACO FIDELITY,55.71562,21.11,55.72241,21.09879,1032.16263193324
Cargo,STAR ISFJORD,54.75713,18.99659,54.69692,18.99504,6703.28712494404
Cargo,STEENBANK,54.63259,19.90238,54.6338,19.936,2170.411155649
Cargo,STENA FORERUNNER,54.676,18.94767,54.75467,18.84233,11071.3965148314
Cargo,STOCKHOLM,57.71867,11.97328,57.71863,11.97329,4.49229504334805
Cargo,STORTEBEKER,59.90795,30.06853,59.90365,30.0899,1285.29462339388
Cargo,STRANDJA,55.72063,20.89128,55.72252,20.90764,1047.07514539934
Cargo,STRATEGIC ENCOUNTER,54.63309,19.89434,54.64101,20.02567,8506.95342528544
Cargo,SUEDEROOG,59.87295,30.20375,59.89033,30.22363,2230.77114703091
Cargo,SVISLOCH,59.94119,30.25643,59.94119,30.25643,0
Cargo,SVYATITEL ALEKSIY,54.64499,20.05175,54.63951,20.01301,2569.04507919772
Cargo,SYLVEIA,57.60033,11.79304,57.60037,11.79307,4.79888285643927
Cargo,TANAIS,54.38043,18.66072,54.36997,18.66461,1191.40759761632
Cargo,TASMAN,57.98169,11.74611,57.96387,11.71894,2551.05652569267
Cargo,TENDER1,57.64594,11.85902,57.61285,11.80496,4893.83934507296
Cargo,TERSCHELLING,59.91047,30.05565,59.90586,30.07837,1368.00235265887
Cargo,THEA MARIEKE,54.53445,18.79455,54.52118,18.77537,1928.03460627701
Cargo,THOR INTEGRITY,55.7284,21.0655,55.72865,21.05033,951.348327096487
Cargo,THULELAND,57.65663,11.74896,57.65178,11.71843,1896.79739860662
Cargo,THURKUS,54.54402,18.82845,54.56498,18.859,3055.12061257243
Cargo,TIDAN,57.60259,11.65599,55.71618,20.80508,597284.135666156
Cargo,TINA,54.55447,18.84484,54.56521,18.86041,1561.87959913145
Cargo,TOLLUND,54.66673,19.819,54.78199,18.99543,54477.9541958991
Cargo,TRADER BULK,57.60003,11.65679,57.60091,11.68952,1954.70889975683
Cargo,TRANSOSPREY,54.72713,18.99946,59.92068,30.0053,876546.780157696
Cargo,TRAVEBERG,55.6643,21.14626,55.68792,21.13279,2761.96535218847
Cargo,TRICA,59.88806,30.2011,59.89521,30.1315,3967.26398472632
Cargo,TRUE LOVE,55.74601,20.86242,55.74756,20.84578,1056.78241383851
Cargo,UFA,54.64828,20.07527,54.69624,20.43857,23987.559512021
Cargo,USOLIE,55.69459,21.13291,55.73171,20.97099,10962.6494918173
Cargo,VALENCIA EXPRESS,59.89643,30.12481,59.89277,30.14283,1085.54236807391
Cargo,VANTAGE WAVE,55.70213,20.87546,55.71448,21.11101,14837.0729675324
Cargo,VARVARA,59.91079,30.05415,59.91301,30.04302,668.498608507527
Cargo,VASTANVIK,54.53333,18.81033,54.58216,18.88781,7386.62252989555
Cargo,VENTURA,55.19872,19.96576,55.63885,20.80759,72314.577230593
Cargo,VICTORIA,54.37491,18.65989,54.37488,18.65932,37.11010543773
Cargo,VICTORIABORG,55.66924,21.14524,55.71801,21.10651,5948.06048746484
Cargo,VICTORINE,57.64971,11.71424,57.65609,11.7494,2211.3253448884
Cargo,VIDFOSS,59.90969,30.05993,59.9142,30.03802,1321.80638501045
Cargo,VINGAREN,55.75435,20.80184,59.92171,30.00018,714651.213193134
Cargo,VIONA,57.60448,11.66448,57.60928,11.66926,605.618236957879
Cargo,VITA,55.72998,21.06494,55.73095,21.04599,1192.731736326
Cargo,VITIM,54.45097,18.99401,55.74082,20.80078,184002.725352148
Cargo,VLADIMIR,59.90915,30.06179,59.90486,30.08275,1263.62379555297
Cargo,WALTER HAMMANN,57.62553,11.68675,57.64769,11.7103,2838.05140073341
Cargo,WES AMELIE,59.91872,30.0146,59.91361,30.03984,1518.94796714692
Cargo,WES JANINE,54.45587,18.99905,54.77571,18.98727,35612.522181544
Cargo,WIEBKE D,54.69908,18.86269,54.69349,18.87828,1180.30921572339
Cargo,WILHELM,59.89294,30.22716,59.89277,30.2269,23.8518981407892
Cargo,WILSON BILBAO,54.67572,18.93328,54.65024,18.92236,2922.26231623795
Cargo,WILSON HOLLA,54.69785,18.95473,54.68437,18.94872,1549.60925372096
Cargo,WILSON SKY,54.67703,18.9902,55.69126,21.13543,177008.334000514
Cargo,WILSON SUND,54.698,20.45283,54.69806,20.45276,8.05538183051189
Cargo,WILSON VOLOS,54.6076,18.91041,54.63191,18.92982,2981.36278212458
Cargo,WINTER BAY,55.73163,20.98156,55.73263,20.95861,1442.80347264318
Cargo,WMS GRONINGEN,59.91378,30.03969,59.91872,30.01553,1455.9871150599
Cargo,WYBELSUM,59.9141,30.03724,59.91015,30.05674,1173.72404075079
Cargo,X-PRESS ETNA,59.90613,30.07705,59.90249,30.09439,1049.32305953471
Cargo,YAMAL KRECHET,54.7202,18.97866,54.69192,18.95926,3386.37249340296
Cargo,ZAMOSKVORECHYE,54.68554,20.17347,54.68573,20.22603,3382.28063944272
Cargo,ZBASTAR ENDURANCE,54.53364,18.5378,54.53359,18.53776,6.13637835181962
Cargo,ZEALAND BEATRIX,55.65665,20.86282,55.69824,20.86267,4629.78719542706
Cargo,ZENIT,59.91341,30.04125,59.9185,30.01639,1498.47263634571
Cargo,ZHEN ZHU HAI,59.87513,30.19516,59.87498,30.1947,30.6482831054138
Fishing,.WLA-311,54.7962,18.42845,54.79691,18.4361,497.249757143724
Fishing,100,55.78035,20.80773,55.7599,20.80213,2303.3331896194
Fishing,169,55.72095,21.10062,55.70719,21.11483,1772.09572703346
Fishing,652,55.77225,20.80305,55.75827,20.80489,1560.50689265251
Fishing,694,55.77372,20.80183,55.7479,20.80184,2874.26932052523
Fishing,756,55.70136,21.11934,55.73271,21.0479,5678.53829639428
Fishing,AGNESE,54.61623,18.89098,54.60652,18.88237,1215.0993545494
Fishing,AHLMA,57.65745,11.82032,57.65135,11.83575,1142.65101921237
Fishing,ALBATROSS,59.86836,30.21739,59.86845,30.21742,10.158043838787
Fishing,ALVSBORG,57.64545,11.858,57.65069,11.83671,1395.9413695585
Fishing,ANCILLA WLA-68,54.79672,18.4304,54.79977,18.4426,853.338425481478
Fishing,ATLANT,55.77094,20.80019,55.70748,20.80876,7084.72089650275
Fishing,ATLANTIDA,54.63342,19.8941,54.63615,19.96907,4839.88129107305
Fishing,BALTICA,54.42768,18.99997,54.70739,18.99247,31140.9365592895
Fishing,BISCAYA GG34,57.66939,11.62202,57.67314,11.62985,625.73003022638
Fishing,BOOTES,54.48476,18.71676,54.47595,18.70021,1451.72391780304
Fishing,BORIS SYROMYATNIKOV,54.37305,18.66233,54.37277,18.66246,32.2892579434402
Fishing,BRATYA STOYANOVY,54.7051,20.48718,54.70523,20.48743,21.63286032673
Fishing,CHRISTINA MICHELLE,54.79703,18.43237,54.79712,18.42093,734.20514089996
Fishing,CLIPPERTON,57.605,11.61267,57.603,11.62517,778.051754588769
Fishing,CLIPPFJORD,57.60124,11.79403,57.6004,11.7906,224.944500546456
Fishing,DANAFJORD,57.67349,11.66452,57.67466,11.66486,131.806922047215
Fishing,DAR-10,54.79816,18.81418,54.79982,18.44383,23765.9597052207
Fishing,DARIUS,55.62143,20.80016,55.87436,20.80899,28161.4735335019
Fishing,DZI 85,54.79667,18.42983,54.79833,18.477,3032.63412374827
Fishing,DZI-92 ATILIUS,54.79614,18.42568,54.79985,18.44069,1048.01811796166
Fishing,ENSKAR,57.72721,11.66791,57.77259,11.62051,5783.36635935129
Fishing,EROS AV HONO,57.68261,11.64932,57.74771,11.61491,7530.17801066266
Fishing,FENIKSS,54.78333,18.4,54.79632,18.41446,1718.25817983135
Fishing,FRANEK ZUBRZYCKI,54.63113,18.87422,54.6411,18.87042,1136.53814122652
Fishing,GANTHI,57.60079,11.79128,57.60175,11.60523,11097.6275394549
Fishing,GDA-18,54.79884,18.76773,54.79977,18.83827,4527.68282568564
Fishing,GDA-20,54.67441,18.99993,54.41359,18.99597,29035.4756168895
Fishing,GG 38 TOVEN,57.9156,11.60165,57.90454,11.60112,1231.59246891169
Fishing,GG 391 ELISABETH,57.67155,11.62779,57.66545,11.61814,889.48211504707
Fishing,GG 65 CORIOLA,57.70755,11.65801,57.70755,11.65801,0
Fishing,GG 668 SILVER,57.62911,11.82257,57.64779,11.82975,2123.00112922783
Fishing,GG 690 VINGASAND,57.62533,11.82135,57.63206,11.82187,749.820954823311
Fishing,GG102 MAUDAN,57.69856,11.64054,57.71507,11.60402,2845.19715785046
Fishing,GG1206 DANO,57.63395,11.82328,57.64334,11.83613,1295.71171339276
Fishing,GG292 MARTINA,57.77287,11.61638,57.77292,11.61625,9.51510608180154
Fishing,GG32 TRISTAN,57.7686,11.60609,57.748,11.60948,2302.00204135595
Fishing,GG43 ANNA,57.73304,11.67202,57.73392,11.67183,98.6097600998439
Fishing,GG451 MIA,57.69855,11.6407,57.69855,11.6407,0
Fishing,GG75 MANILL,57.62975,11.78354,57.6271,11.76748,1001.62357148294
Fishing,GG976 SVANFORS,57.93022,11.60012,57.92948,11.60151,116.342927140584
Fishing,GINNETON,57.71497,11.95756,57.71513,11.95762,18.1648928817207
Fishing,GLITTFORS,57.74045,11.60468,57.60073,11.66888,16016.2585622274
Fishing,GOTTSKAR,57.71786,11.66545,57.70826,11.6679,1078.55128934993
Fishing,HEL 112,54.79729,18.80079,54.79933,18.65145,9585.96096300218
Fishing,HEL 23,54.79855,18.87031,54.79923,18.95095,5175.21522969529
Fishing,HEL 95,54.63875,18.99859,54.59192,18.9911,5235.40197182653
Fishing,HEL-102,54.79677,18.76717,54.79534,18.70248,4154.49363972727
Fishing,HEL-103,54.79896,18.58353,54.68947,18.77327,17239.5591961838
Fishing,HEL-111,54.79856,18.73015,54.79767,18.85563,8052.80362626918
Fishing,HEL-125,54.52187,18.55046,54.52021,18.54748,266.868119317815
Fishing,HEL-150,54.43809,18.99997,54.54118,18.98796,11502.1710222594
Fishing,HEL-152,54.79922,18.70689,54.79939,18.81003,6618.44345112368
Fishing,HEL-30,54.79971,18.80706,54.79663,18.42929,24244.2954726689
Fishing,HEL-4,54.74201,18.99223,54.62632,18.99098,12878.8031021116
Fishing,HEL-6,54.74726,18.98651,54.73862,18.97788,1110.22009787056
Fishing,INGUN,57.69784,11.915,57.69016,11.89695,1372.62123507516
Fishing,JAS 102,54.56517,18.99999,54.58678,18.99541,2423.69755889025
Fishing,JAS 31,54.79669,18.92915,54.79908,18.98393,3525.36885070893
Fishing,JAS 39,54.60051,18.80351,54.69555,18.67388,13477.5373546652
Fishing,JAS 51,54.42486,18.99862,54.50483,18.98656,8936.34928542838
Fishing,JAS 61,54.60688,18.76464,54.61336,18.74677,1359.26503628368
Fishing,JAS 76,54.79682,18.69658,54.79561,18.84209,9338.95190144927
Fishing,JAS 77,54.69597,18.67434,54.58949,18.81434,14894.0658620755
Fishing,JAS 78,54.4543,18.99326,54.56546,18.99991,12381.7356847382
Fishing,JAS-12,54.63068,18.99728,54.56837,18.99592,6936.87188328414
Fishing,JAS-64,54.51767,18.99464,54.64897,18.9963,14616.6414427314
Fishing,JAS-74,54.69625,18.67479,54.48427,18.93163,28831.9987875278
Fishing,JAS-79,54.69469,18.67381,54.62317,18.86956,14908.5643431046
Fishing,JAS-80,54.69943,18.99941,54.64479,18.99526,6088.36046098256
Fishing,JURMALA,54.7968,18.43028,54.7968,18.42252,497.98428169153
Fishing,KAPER-2 SG-312,54.54259,18.65607,54.54381,18.6805,1583.40731380598
Fishing,KAPITAN EDEMSKIY,54.70433,20.48367,54.70433,20.48367,0
Fishing,KAPITAN GERASHCHENKO,54.53149,18.68513,54.53154,18.70719,1424.94786640224
Fishing,KAPITAN KRAVCHENKO,54.37393,18.66181,54.37406,18.66191,15.8578390117527
Fishing,KLONDYKE,57.69845,11.64067,57.68848,11.60009,2657.17363336754
Fishing,KOL-143,54.7965,18.41905,54.79787,18.43168,824.723697163906
Fishing,KOL-148,54.79916,18.44166,54.79731,18.42032,1384.80699383757
Fishing,KPT.WISNIEWSKI,54.79715,18.42188,54.79809,18.42753,377.369343971791
Fishing,KRISTIN,57.60079,11.64452,57.60241,11.81972,10451.4168453557
Fishing,KRISTINA,54.79707,18.4221,54.79743,18.43549,860.204022684344
Fishing,KURSHSKAYA KOSA,54.37183,18.663,54.3715,18.66283,38.3538527505322
Fishing,KUZ-42,54.60289,18.80058,54.63484,18.99275,12886.9110616228
Fishing,LAGUN,57.73215,11.67255,57.73225,11.67257,11.1952268861234
Fishing,LBB 1032,55.75491,20.80759,55.73877,20.80297,1819.86607247252
Fishing,LBB 1044,55.7087,21.11383,55.72517,21.08895,2407.34869929974
Fishing,LBB 1066,55.77367,20.80852,55.71296,20.80702,6758.8598781734
Fishing,LBB 1094,55.76964,20.80727,55.71531,20.80318,6053.41589112762
Fishing,LBB 1107,55.75286,20.87562,55.75541,20.85447,1354.99916230089
Fishing,LBB 1113,55.71549,21.10774,55.72502,21.09095,1494.54466925448
Fishing,LBB-1010,55.77594,20.80774,55.68113,20.80552,10555.1183393832
Fishing,LBB-6931,55.67897,21.14639,55.67906,21.1461,20.7770050593172
Fishing,LEB-7,54.74087,18.6593,54.75195,18.63059,2219.07138812521
Fishing,LIRA,54.37352,18.66222,54.37295,18.66258,67.6099367810786
Fishing,LIZ,57.92967,11.60318,57.92972,11.60295,14.6897276706487
Fishing,MARINA,57.68264,11.64908,57.68252,11.64905,13.477120432862
Fishing,MARINO,57.65689,11.60139,57.68228,11.64755,3942.14205248547
Fishing,MIKADON,54.7972,18.42006,54.79665,18.42989,633.78515572491
Fishing,NAUTIC CENTER DEMO,57.6634,11.89193,57.66337,11.89192,3.39225210336816
Fishing,NAUTILUS,54.79576,18.42532,54.79718,18.43477,626.705018462377
Fishing,NIKOLAY SOLODCHUK,55.7168,21.10915,55.72448,21.096,1187.72187830126
Fishing,NIVENSKOYE,54.70477,20.48366,54.70451,20.48368,28.9716406093407
Fishing,OCEANOGRAF,54.52055,18.6516,54.52441,18.62692,1651.40764773775
Fishing,ORKA WLA-139,54.63648,18.83714,54.623,18.84261,1541.42805947459
Fishing,PIA-96,54.3893,18.99751,54.37226,18.99548,1901.44426417997
Fishing,PL ZAG-17,54.52466,18.99753,54.60067,18.99883,8461.81052148297
Fishing,POLAR,57.71579,11.95836,57.71556,11.95796,34.9453944259238
Fishing,R 222 BORNOE,54.79729,18.41826,54.79617,18.42855,672.01068917785
Fishing,R 355 TRINE LOUISE,54.79691,18.41784,54.79491,18.41795,222.750866622424
Fishing,RANDI,57.72477,11.66472,57.73264,11.66352,878.982922805004
Fishing,RODSKAR GG430,57.6466,11.85734,57.60331,11.79288,6163.27695909827
Fishing,RON,57.64564,11.85814,57.64551,11.8581,14.6664117433201
Fishing,RONDO,54.79611,18.42903,54.79936,18.46053,2053.53094630891
Fishing,ROSSO,57.76882,11.60878,57.74811,11.60605,2311.12045494257
Fishing,RUNAVIK GG 44,54.7969,18.42219,54.79561,18.42839,423.000703932425
Fishing,SAIBON LL1248,57.69403,11.60128,57.74739,11.60602,5946.68833361369
Fishing,SANDEFJORD,57.67745,11.76922,57.67932,11.78665,1058.10099903441
Fishing,SKAGERAK,57.64533,11.8585,57.64328,11.86087,268.352518833468
Fishing,SKRAALLAN,57.71763,11.97189,57.71763,11.97189,0
Fishing,SONGVAR,57.74808,11.60806,57.74861,11.63749,1749.26718569991
Fishing,STARYY ARBAT,54.67498,20.14534,54.67473,20.14485,42.0624875460221
Fishing,STELLA NOVA,57.7071,11.65927,57.70704,11.6593,6.91336061463033
Fishing,STJARNVIK,57.65093,11.68491,57.63983,11.68664,1239.93697656605
Fishing,STRANNEFJORD,57.74808,11.61438,57.74959,11.60024,856.621101022258
Fishing,SUJINYU00618,59.9412,30.25645,59.94119,30.25643,1.57569483506253
Fishing,SUNNANLAND,57.64503,11.85826,57.64485,11.85847,23.6223737392506
Fishing,SVANEN,57.76917,11.60111,57.74836,11.60397,2322.77678381956
Fishing,SVANVIK,57.67317,11.66446,57.67327,11.66443,11.274284627416
Fishing,TOR-ON,57.71599,11.9586,57.71615,11.95823,28.305530133761
Fishing,TORLAND,57.71657,11.95847,57.7167,11.9584,15.0581262419791
Fishing,ULRIKA,57.79709,11.60405,57.74863,11.60474,5394.69803275409
Fishing,VALERIY DZHAPARIDZE,54.70491,20.48579,54.70463,20.48575,31.2754571830497
Fishing,VALOSKAR,57.70681,11.66157,57.7067,11.66161,12.4740836004564
Fishing,VASTERLAND,57.67639,11.74027,57.67628,11.76015,1183.37443406125
Fishing,VASTFJORD II,57.67399,11.66501,57.67385,11.66483,18.9127116994395
Fishing,VERA C,57.60025,11.81978,57.60386,11.73032,5350.91672505261
Fishing,VICTORIA,57.74051,11.60408,57.74534,11.61588,883.516625123507
Fishing,VINGAFJORD GG-173,57.67876,11.77928,57.67751,11.76118,1086.25657503605
Fishing,VITAS,54.79619,18.42685,54.79846,18.43364,503.702323684566
Fishing,WLA 108,54.75691,18.70708,54.74677,18.71972,1390.52913224514
Fishing,WLA 11,54.79811,18.42881,54.79979,18.44126,820.511567397145
Fishing,WLA 116,54.79826,18.43361,54.79989,18.4425,598.630132698879
Fishing,WLA 250,54.75185,18.84858,54.7962,18.76582,7253.4412461876
Fishing,WLA 253,54.69599,18.72768,54.70285,18.71236,1246.7461559424
Fishing,WLA 31,54.79627,18.42453,54.79564,18.62986,13177.1471352025
Fishing,WLA 51,54.78111,18.49622,54.7866,18.47771,1336.18117638643
Fishing,WLA 60,54.79879,18.78897,54.79922,18.76735,1388.17512404736
Fishing,WLA 80,54.79767,18.43156,54.79661,18.72787,19015.3624662954
Fishing,WLA-13O,54.79633,18.41696,54.79861,18.46391,3023.55490000159
Fishing,WLA-184 HELOT,54.52193,18.5509,54.52152,18.54946,103.629275596453
Fishing,WLA-196,54.79899,18.43903,54.79955,18.5135,4779.09495029892
Fishing,WLA-197,54.79743,18.42825,54.79802,18.77056,21966.7128071679
Fishing,WLA-207,54.76241,18.57099,54.76664,18.5554,1106.45813090726
Fishing,WLA-209 BLANKA,54.79887,18.43543,54.79605,18.42918,509.32156002414
Fishing,WLA-217,54.79586,18.89992,54.79933,18.45274,28698.9726331252
Fishing,WLA-22,54.79597,18.43716,54.79729,18.44796,708.479494331334
Fishing,WLA-254,54.79649,18.42639,54.79999,18.44629,1335.11647743162
Fishing,WLA-291,54.79381,18.75323,54.57128,18.99571,29277.1566331879
Fishing,WLA-295,54.79669,18.43465,54.79936,18.4416,535.956168671842
Fishing,WLA-305,54.79918,18.44281,54.79984,18.71746,17624.1384567777
Fishing,WLA-307,54.79653,18.41913,54.79652,18.4319,819.498505366273
Fishing,WLA-311,54.79657,18.43504,54.79646,18.41907,1024.92689288661
Fishing,WLA-312,54.79628,18.42995,54.79964,18.44099,801.127643560555
Fishing,WLA-32,54.79849,18.42962,54.79947,18.44576,1041.42979330978
Fishing,WLA-39,54.79922,18.49945,54.79983,18.44707,3361.85308315479
Fishing,WLA-58,54.7969,18.43235,54.79985,18.51362,5225.48410138962
Fishing,WLA-6,54.79902,18.43411,54.79701,18.41978,946.405199863496
Fishing,WLA-65,54.67517,18.89062,54.68263,18.85677,2331.50441617429
Fishing,WLA-67,54.43056,18.99781,54.53438,18.99882,11557.3741118336
Fishing,WLA-84,54.79762,18.43322,54.7998,18.742,19815.9443435597
Fishing,WLA-85,54.7987,18.42815,54.79725,18.41553,825.771975436689
Fishing,WLA182,54.79671,18.42289,54.79723,18.4341,721.704105775912
Fishing,WLA310,54.79611,18.42464,54.79883,18.43298,614.911231677091
Fishing,ZAG 31,54.4668,18.99775,54.44646,18.9902,2316.35119292185
Fishing,ZAG-21,54.48479,18.99528,54.40871,18.99656,8469.59210534475
High Special,POLIS 593790,57.68141,11.87037,57.68133,11.8709,32.7757136208605
High Special,RIVO,57.60096,11.79172,57.66149,11.84175,7368.37814411256
High Special,VALO,57.6626,11.83972,57.61596,11.79779,5761.76496909451
Navigation,35,59.91144,30.04795,59.91144,30.04795,0
Navigation,36,59.91244,30.04861,59.91244,30.04861,0
Navigation,BY GD,54.53282,18.66424,54.53455,18.66366,196.192588144681
Navigation,BY HEL,54.60226,18.89077,54.57765,18.9449,4437.95859009743
Navigation,BY NP,54.46484,18.70134,54.46468,18.7012,19.9820293062968
Navigation,P9 HYDRO METEO,54.41118,18.77667,54.41118,18.77667,0
Navigation,ST.-PETERSBURG PT LE,59.8778,30.21639,59.8778,30.21639,0
Passenger,ADA,57.70795,11.70189,57.69927,11.66946,2157.35447544411
Passenger,AGAT,54.5514,18.99818,54.6465,19.83599,55054.8696352996
Passenger,ALV VIRA AV GOTEBORG,57.70457,11.93954,57.70451,11.93952,6.78426710966151
Passenger,ALVELI,57.70588,11.95625,57.705,11.94017,961.360415704861
Passenger,ALVFRIDA,57.70587,11.95631,57.7046,11.94027,964.401468667381
Passenger,ALVSNABBEN 3,57.70613,11.95547,57.70527,11.93951,954.028090795939
Passenger,ALVSNABBEN 4,57.70351,11.94312,57.69279,11.91155,2225.07477900609
Passenger,ALVSNABBEN 5,57.70218,11.92533,57.71219,11.96432,2572.66068238075
Passenger,ARLAN,57.64459,11.84249,57.60499,11.79455,5253.41873842807
Passenger,ATHENA SEAWAYS,55.73215,21.00029,55.73615,20.95727,2732.86727169782
Passenger,BEDA,57.69883,11.6675,57.70813,11.70251,2325.48486527207
Passenger,BURO,57.71231,11.66467,57.69633,11.6896,2315.81430023256
Passenger,CARL MICHAEL BELLMAN,57.68652,11.87643,57.70021,11.9236,3193.45531873932
Passenger,DIANA,57.68612,11.86356,57.6852,11.8504,789.785429920735
Passenger,DROTT AF DYRON,57.75201,11.65924,57.7439,11.66121,910.35450022869
Passenger,DUNAEVSKIY,59.85643,30.49599,59.85643,30.49589,5.59011403548206
Passenger,FITTER W,59.88388,30.22513,59.88393,30.22508,6.2273202284244
Passenger,FJORDSKAR,57.6057,11.79628,57.62082,11.76727,2413.51472847412
Passenger,FROJA,57.98974,11.69609,57.98953,11.69569,33.2203036374312
Passenger,GLOMAR WAVE,54.52425,18.5592,54.51115,18.7081,9731.14256308377
Passenger,GOTA,57.70813,11.70251,57.6987,11.66765,2324.00351539721
Passenger,GOTA II,57.64394,11.85177,57.65084,11.79274,3599.34133132039
Passenger,HAKEFJORD,57.93035,11.60016,57.9295,11.60198,143.265765601035
Passenger,HAMNEN,57.69351,11.91335,57.68424,11.86022,3325.5066642842
Passenger,HAVSORNEN,57.65982,11.68945,57.67397,11.68206,1635.46683552077
Passenger,KONEVETS,59.85476,30.49736,59.85481,30.49728,7.14014357023099
Passenger,LINDA,57.74679,11.64108,57.77127,11.62132,2967.02568722107
Passenger,LYRON,57.66144,11.84161,57.66145,11.84163,1.63019858338506
Passenger,M/F WAWEL,54.79173,18.93382,54.79806,18.87984,3535.17379348126
Passenger,MARIE,57.70815,11.70251,57.69866,11.6676,2329.67879191319
Passenger,MOSKVA-3,59.95501,30.27156,59.95499,30.27133,13.0110521548474
Passenger,NIDA,54.63838,19.8915,54.6377,19.89132,76.5803705117989
Passenger,NORDO III,57.75609,11.63932,57.76962,11.62356,1773.21413290638
Passenger,NYA SKARGARDEN,57.70426,11.95,57.71055,11.95918,887.885578286064
Passenger,OPTIMA SEAWAYS,55.73363,20.9275,55.73611,20.84492,5183.09627457108
Passenger,ORIGO,57.67769,11.76862,57.67888,11.78706,1105.50486909923
Passenger,PATRIA SEAWAYS,55.73167,20.9469,55.72917,21.03533,5550.00375646089
Passenger,POLSTJERNAN,57.711,11.6586,57.71171,11.68323,1466.75844990225
Passenger,PRINCESS ANASTASIA,59.91652,30.02609,59.91213,30.04772,1302.21305061743
Passenger,REGINA SEAWAYS,55.72519,21.09108,55.72449,21.02488,4150.91247883035
Passenger,RUBIN,54.35761,18.70439,54.3575,18.70433,12.8488190114101
Passenger,SCOTTISH VIKING,54.765,18.94562,54.78376,18.93119,2284.66295453262
Passenger,SILVANA,57.68144,11.64527,57.68147,11.64524,3.78689597285861
Passenger,SILVERTARNAN,57.66155,11.84216,57.61813,11.80647,5280.59279222039
Passenger,SKARVEN,57.65436,11.80407,57.66648,11.81299,1449.98862807697
Passenger,ST ERIK,57.68629,11.87734,57.68953,11.89931,1356.13762848818
Passenger,STENA BALTICA,54.56133,18.82333,54.53783,18.7605,4826.97721193779
Passenger,STENA DANICA,57.70141,11.94293,57.60029,11.63546,21497.0718949228
Passenger,STENA GERMANICA,57.66095,11.77369,57.67359,11.79963,2089.27142439456
Passenger,STENA JUTLANDICA,57.60855,11.61805,57.69179,11.90333,19355.1138933847
Passenger,STENA SCANDINAVICA,57.65953,11.76765,57.65563,11.74008,1698.31787724443
Passenger,STENA SPIRIT,54.79627,18.90587,54.79433,18.69187,13735.2738348371
Passenger,STENA VISION,54.79028,18.80602,54.79681,18.75879,3117.09027765731
Passenger,SVANEN WEST,57.67706,11.67557,57.67707,11.65862,1008.88989624655
Passenger,SVANHILD,57.70887,11.70227,57.71309,11.68985,875.306109288363
Passenger,TOLL,54.36521,18.66392,54.36518,18.66378,9.67459855757804
Passenger,TRUBADUREN,57.63822,11.81913,57.6518,11.82213,1522.24671260819
Passenger,ULRIKA,57.74446,11.64199,57.75909,11.62117,2044.92914909979
Passenger,VESTA,57.60153,11.79194,57.65069,11.79239,5472.53189932355
Passenger,VICTORIA SEAWAYS,55.70357,20.8179,55.73063,20.81393,3022.57381765984
Passenger,VIKING HELGI,59.91055,30.23084,59.91043,30.23092,14.0847386079861
Passenger,VIKING INGVAR,59.91083,30.22489,59.91079,30.22502,8.5127052080351
Passenger,VIPAN,57.66312,11.83516,57.68047,11.84791,2075.18064055576
Passenger,VIVI,57.7056,11.69271,57.70139,11.6742,1196.53887551215
Passenger,YLVA,57.61589,11.79435,57.66191,11.84173,5849.29138446674
Pleasure,ANKAWER IV,54.36741,18.77855,54.36734,18.77858,8.03158026879084
Pleasure,ANNA MARIA,54.69707,18.67603,54.69701,18.67608,7.41334354080126
Pleasure,ANNABELLA,57.63703,11.81757,57.64877,11.8201,1315.55445858423
Pleasure,AQUILA,57.60107,11.79426,57.662,11.84525,7432.3173136305
Pleasure,ARKUN,54.79666,18.42704,54.79725,18.4143,820.197720943608
Pleasure,ATHENA,54.36343,18.65776,54.36329,18.65778,15.6386211348151
Pleasure,ATLANTICA,57.68664,11.88775,57.68675,11.88772,12.3745862422565
Pleasure,BARRAKUDA,54.96674,20.2634,54.95827,20.36507,6565.77207513442
Pleasure,BEDA,57.70084,11.78708,57.70084,11.78708,0
Pleasure,BLUE ADVENTURE,57.7111,11.9493,57.71135,11.94941,28.5882673066286
Pleasure,BMJ WINDY 37,57.63765,11.87053,57.63765,11.87053,0
Pleasure,BRABANDER,55.70465,21.12301,55.70467,21.12292,6.06832724064098
Pleasure,CARUZZI,54.45473,18.44323,54.4498,18.43688,685.623800222935
Pleasure,CELESTE OF SOLENT,57.67101,11.84939,57.67095,11.84949,8.94713797537697
Pleasure,CHA-10,54.79719,18.42195,54.78913,18.59412,11086.0653329653
Pleasure,CHESS ARCONA400,57.69859,11.7873,57.69837,11.78723,24.8417684286925
Pleasure,DAISY,57.74995,11.65436,57.74983,11.65435,13.3715397897313
Pleasure,DAR MLODZIEZY,54.51921,18.55857,54.51931,18.5586,11.2994538140799
Pleasure,DT SUPPLY,57.62814,11.81317,57.60165,11.79117,3227.43532463951
Pleasure,EAGLE,57.60223,11.91666,57.60266,11.91622,54.5893677704535
Pleasure,EBBA HARD,57.70789,11.65943,57.70778,11.6594,12.3744360381034
Pleasure,EMM XXIII M23,57.72108,11.98115,57.72092,11.98135,21.4150625724681
Pleasure,EMPATIA POLSKA,54.697,18.67601,54.697,18.67601,0
Pleasure,EUPHORIA,54.38993,18.6696,54.39977,18.6807,1310.4904976756
Pleasure,EXTREMARIUM,57.70559,11.65843,57.70559,11.65843,0
Pleasure,FILIPPO,54.35782,18.77942,54.35801,18.77933,21.9416498431928
Pleasure,FITTER WORKSHOP,59.90968,30.26281,59.90985,30.26317,27.601155827005
Pleasure,FLORO/HAMBURGSUND,57.60063,11.79214,57.60022,11.79387,112.832751196138
Pleasure,FURUNO SVERIGE AB,57.66339,11.94319,57.66349,11.94331,13.2278145074777
Pleasure,GISELE,57.70028,11.78831,57.70065,11.788,45.1275214446846
Pleasure,GREAT ESCAPE,57.71063,11.95076,57.71067,11.95074,4.60887672857403
Pleasure,HARMONIE II,57.89077,11.68546,57.89077,11.68546,0
Pleasure,HIFLYER,57.70553,11.65819,57.70541,11.65817,13.411193871914
Pleasure,HYDROMET,54.51751,18.55404,54.5175,18.55403,1.28713787809816
Pleasure,ISADORA,57.62461,11.8032,57.66204,11.84554,4870.75165609069
Pleasure,JEWEL,57.61911,11.92572,57.61923,11.92581,14.3956126041931
Pleasure,JOKER,54.69193,20.24598,54.69189,20.24599,4.49902271893384
Pleasure,JUNA,54.51805,18.55237,54.51795,18.55228,12.5594057452533
Pleasure,KAPITAN BORCHARDT,54.69582,18.67619,54.69592,18.67635,15.1615667452588
Pleasure,KAXE,57.71685,11.95878,57.71685,11.95878,0
Pleasure,"KM ,TAN BORCHARDT",54.69583,18.67625,54.69584,18.6762,3.40384715074125
Pleasure,KRISTINA 5,57.65943,11.85122,57.65931,11.85128,13.8279347369023
Pleasure,KRUZENSHTERN,54.69938,20.46726,54.69945,20.46729,8.02777646988013
Pleasure,LA DOLCE VITA,57.73351,11.65872,57.7335,11.65878,3.735454196214
Pleasure,LADY,57.70684,11.65836,57.70693,11.65845,11.3589164202984
Pleasure,LADY H,57.72077,11.97922,57.7208,11.9797,28.7306059910299
Pleasure,LE VOYAGEUR,54.36806,18.77865,54.36809,18.77848,11.5195544764889
Pleasure,LILIAN101,55.60352,20.87367,55.65516,20.8662,5767.67533035046
Pleasure,LOUISE,57.60969,11.85522,57.60544,11.89251,2273.57894104723
Pleasure,LT-12465,55.70416,20.812,55.64753,20.80253,6331.98659866943
Pleasure,MAGNUS ZAREMBA,54.36012,18.66599,54.36006,18.66609,9.31050764768997
Pleasure,MANDALAY,57.68657,11.88639,57.68657,11.88625,8.33082393504832
Pleasure,MARELD,57.66803,11.84517,57.66805,11.84517,2.22638981617124
Pleasure,MARISSA,57.69537,11.66495,57.69543,11.66487,8.20136234254627
Pleasure,MARY SWE,57.92041,11.60999,57.91661,11.60639,473.545492822563
Pleasure,MIR,59.87433,30.20861,59.87449,30.20873,19.0311958751246
Pleasure,MUCKLE FLUGGA,57.85373,11.60375,57.8704,11.63615,2669.23325166391
Pleasure,MUSASHI M,54.51734,18.55065,54.51734,18.55065,0
Pleasure,NATALIA B,54.35769,18.70782,54.3576,18.70774,11.2830031171199
Pleasure,NAWICA TRAINING SHIP,57.67104,11.84959,57.67041,11.84201,456.669014744164
Pleasure,NOROY,54.34937,18.78434,54.34949,18.78433,13.3740860960414
Pleasure,OM II AF GOTEBORG,57.66663,11.84839,57.66657,11.84831,8.20355819687515
Pleasure,ORKA HEL,54.79654,18.42666,54.79654,18.42666,0
Pleasure,PAULA,57.70009,11.9183,57.70039,11.91803,37.0570259823444
Pleasure,PENTA 60,57.69131,11.76908,57.69141,11.76896,13.2248439358796
Pleasure,PENTA 80,57.76413,11.69696,57.71004,11.6957,6021.73675065731
Pleasure,PENTA 81,57.82878,11.60581,57.9337,11.60542,11679.6637829478
Pleasure,PIMPIM,57.83287,11.60054,57.88073,11.603,5329.74260883305
Pleasure,PIORUN,54.3731,18.66348,54.38841,18.66776,1726.7423174345
Pleasure,SAXKRAN NR 2,57.691,11.89191,57.69159,11.82292,4105.30098494509
Pleasure,SEA BIRD,57.64749,11.85693,57.64734,11.8575,37.8386342676304
Pleasure,SEA WIND,57.67908,11.7929,57.67896,11.77213,1236.26688332128
Pleasure,SEDOV,54.678,20.1488,54.67809,20.14883,10.2031177613578
Pleasure,STORMFAGEL,57.70518,11.66089,57.70513,11.66091,5.69166058405336
Pleasure,TARNTANK TEKNIK,57.60376,11.79223,57.64732,11.85466,6112.35792071549
Pleasure,TINDRA,57.66683,11.84395,57.71206,11.96474,8775.30942028586
Pleasure,TOOTIKI,57.65703,11.67826,57.65882,11.66803,640.985168123735
Pleasure,TRIPLE ESS,57.65945,11.85235,57.6595,11.85231,6.05426022331634
Pleasure,VIKING,57.70477,11.65825,57.70469,11.65831,9.59393732556807
Pleasure,WALONA,57.70317,11.94353,57.69901,11.91768,1605.83259978472
Pleasure,WWW.SSBILBEHOR.SE,57.64104,11.95973,57.64092,11.95983,14.6268194294807
Pleasure,WXA A SZCZESCIA,54.51795,18.55004,54.51795,18.55002,1.29230323914734
Pleasure,WYSPA SZCZESCIA,54.51793,18.54998,54.51776,18.55076,53.8357241407134
Pleasure,YANIKI IV,57.68073,11.85396,57.683,11.86249,567.06659605671
Pleasure,ZAWISZA CZARNY,54.79242,18.97705,55.99943,20.87371,180071.802675904
Tanker,AALBORG,57.60052,11.6314,57.6015,11.69333,3695.50638618019
Tanker,ABIGAIL,59.88621,30.21915,59.88621,30.21915,0
Tanker,ACQUAMARINA,55.73,20.80467,54.66344,19.80109,134764.673025411
Tanker,AGATH,57.98556,11.74649,57.99511,11.75793,1259.3060780848
Tanker,AIGRAN D,55.75078,20.81078,54.66877,19.8058,136314.07431372
Tanker,ALANA,59.88128,30.22815,59.90757,30.22255,2943.24648606754
Tanker,ALEKSANDR GLUKHOV,59.89339,30.14004,59.90041,30.10589,2060.62958492703
Tanker,AMARANTH,54.70232,18.99672,54.79168,18.95444,10311.7785807252
Tanker,AMUR STAR,57.67306,11.79004,57.67588,11.80105,726.682454889519
Tanker,ANGARA,59.91455,30.24101,59.88271,30.18866,4594.02920310814
Tanker,ANGON,57.67043,11.78883,57.69172,11.84372,4035.92219789897
Tanker,ARIES,59.91432,30.03682,59.9102,30.05708,1220.13544250477
Tanker,ASTERDEA,54.72745,18.99779,54.75035,18.99927,2550.99006410959
Tanker,AURA,59.88844,30.21381,59.88253,30.22332,845.550838855798
Tanker,B GAS CHAMPION,57.63475,11.69837,57.6461,11.70762,1378.4471621539
Tanker,BALTIC AMBITION,59.91253,30.0457,59.91715,30.02296,1369.21835806734
Tanker,BALTIC EAGLE,59.91547,30.03159,59.91952,30.01138,1214.47116583716
Tanker,BALTIC FROST,59.90125,30.10108,59.90569,30.07941,1306.74404263128
Tanker,BALTIC SEAGULL,59.92037,30.00665,59.91705,30.02327,998.270674037258
Tanker,BALTICO,54.45685,18.99749,54.78958,18.99259,37040.6803680806
Tanker,BERGEN T,54.65162,19.83767,54.68385,20.16665,21480.7901919644
Tanker,BESIKTAS HALLAND,59.91314,30.04284,59.91771,30.02034,1354.69514970382
Tanker,BESIKTAS ICELAND,57.66349,11.77922,57.67393,11.7997,1684.42813551725
Tanker,BIRGIT KNUTSEN,55.79769,20.80321,55.71124,20.98247,14789.0463919897
Tanker,BONITO,54.63328,19.92887,54.66795,19.81384,8353.52950394486
Tanker,BOTHNIA,57.66153,11.77267,57.65619,11.74696,1642.41560066161
Tanker,CLIPPER HARALD,57.96892,11.72741,57.97871,11.74401,1465.61119394438
Tanker,CLIPPER JUPITER,57.92417,11.6562,57.91533,11.63741,1484.0848696504
Tanker,COPENHAGEN,57.92383,11.62883,57.92619,11.6538,1499.26971210664
Tanker,CORAL LACERA,57.98905,11.7486,57.97871,11.73668,1348.99494636757
Tanker,CORAL MEANDRA,57.92804,11.66216,57.93575,11.68014,1365.97442082475
Tanker,CORAL STICHO,57.93739,11.68278,57.92943,11.66798,1245.08811530988
Tanker,CPO GERMANY,59.91166,30.05059,59.91595,30.02949,1270.63841835381
Tanker,DANA,57.74813,11.61588,57.92028,11.60685,19171.1208636585
Tanker,DAVINO D,55.74908,20.8235,55.75215,20.8424,1232.41978737932
Tanker,DELFIN,57.77199,11.61844,57.75572,11.64452,2382.96020515732
Tanker,DEYMA,54.68847,20.19122,54.68563,20.23329,2725.49102654752
Tanker,DMITRIY RULEVSKIY,59.8701,30.21156,59.91161,30.22765,4707.41902260186
Tanker,DON,59.89533,30.21363,59.89125,30.20775,560.433944619831
Tanker,ECO GREEN,54.43014,18.92303,54.43336,18.94306,1345.59335146114
Tanker,ECOMAR,59.8883,30.21862,59.88159,30.22455,817.092261374513
Tanker,EK-STAR,57.66336,11.77758,57.67365,11.79809,1674.25821976113
Tanker,EKEN,59.91273,30.04425,59.90863,30.06415,1200.74272679931
Tanker,EKFORS,59.885,30.17967,59.8805,30.1895,743.24978467316
Tanker,ELAND,59.87735,30.23881,59.8776,30.23861,29.9890183129269
Tanker,ELISALEX SCHULTE,57.68538,11.85763,57.67839,11.81006,2936.04856528493
Tanker,EURONIKE,57.62206,11.68268,57.63465,11.69145,1495.81320132436
Tanker,FLANDRIYA,59.91017,30.22617,59.8945,30.22867,1749.95030960041
Tanker,FOX LUNA,57.601,11.67882,57.61931,11.60118,5058.58799956783
Tanker,FOX SUNRISE,57.69793,11.91591,57.68825,11.88654,2052.91903701007
Tanker,FRAM,57.60339,11.60567,57.63798,11.61326,3877.03455183485
Tanker,FREYA,59.86783,30.22215,59.91383,30.22832,5132.27536148655
Tanker,FURE FLADEN,57.65628,11.74772,57.65138,11.71893,1799.38981696384
Tanker,FURE NORD,57.68709,11.87123,57.67256,11.79428,4857.06256244064
Tanker,GAS GALAXY,57.94217,11.689,57.933,11.6755,1295.54971856011
Tanker,GAZPROMNEFT EAST,59.92205,30.00011,59.89205,30.21617,12513.4765860051
Tanker,GAZPROMNEFT NORD,59.91184,30.05031,59.91631,30.02798,1341.78679433805
Tanker,GAZPROMNEFT NORDWEST,59.90962,30.05975,59.91409,30.0378,1322.19255186114
Tanker,GAZPROMNEFT WEST,59.90368,30.0904,59.89959,30.10918,1142.99202837438
Tanker,GIJON KNUTSEN,57.6765,11.74267,57.67817,11.71917,1411.04453207629
Tanker,GOGLAND,59.87645,30.22294,59.89231,30.2358,1906.04796851356
Tanker,GREEN PLANET,55.89721,20.80805,55.60285,20.83738,32819.4870825743
Tanker,GRENA KNUTSEN,57.62233,11.67633,57.61483,11.6675,987.001596090756
Tanker,GRUMANT,55.67815,21.14064,55.69118,21.13123,1566.09727403709
Tanker,HAFNIA SOYA,54.71785,18.99738,54.51863,18.9962,22177.1993798548
Tanker,HAFNIA SUNDA,55.72616,21.09407,55.72625,21.09396,12.1625618689013
Tanker,HALICZ,54.79863,18.53098,54.79967,18.46382,4311.17830106257
Tanker,HANNE THERESA,57.60177,11.64016,57.60037,11.65048,634.971509071113
Tanker,HELENA KOSAN,57.97732,11.74162,57.96961,11.72932,1124.22491764746
Tanker,INDEPENDENCE,55.66405,21.13777,55.66366,21.13765,44.0635881725567
Tanker,INDIAN POINT,57.65815,11.76211,57.66346,11.77994,1215.1985493775
Tanker,JOAN,54.71097,18.99803,54.7712,18.98928,6728.30954136803
Tanker,JS CHUKAR,54.46613,18.99913,54.79148,18.99357,36219.5684175944
Tanker,KAP.PONIKAROVSKIY,59.91555,30.03067,59.9195,30.01179,1141.55859319273
Tanker,KAPRIFOL,55.72542,21.09317,55.71477,21.10939,1561.98095386701
Tanker,KATELINA,57.63342,11.68755,57.62231,11.67482,1450.94982888487
Tanker,KEILA,59.91003,30.23283,59.90314,30.22369,921.165024423465
Tanker,KEY BAY,57.63471,11.68745,57.62228,11.67425,1591.72320555617
Tanker,KEY BORA,54.63927,20.00914,54.63808,19.99305,1045.01273235051
Tanker,KEY BREEZE,57.92921,11.66758,57.92495,11.64325,1514.32536480801
Tanker,KEY FJORD,54.63268,19.898,54.63334,19.93015,2072.82330413847
Tanker,KOLA,59.88142,30.2307,59.88493,30.22082,676.180196347545
Tanker,LEENI,55.72846,21.00928,55.72853,21.04139,2012.85257225897
Tanker,LEXUS,57.7485,11.62933,57.74821,11.60452,1474.17665248459
Tanker,LOYA,59.87709,30.22295,59.88932,30.20723,1620.03045547529
Tanker,LUKE,54.79767,18.91228,57.60288,11.67853,545609.115926514
Tanker,MARIE KIRK,57.63437,11.68732,57.62285,11.67487,1481.60849832817
Tanker,MARINUS,54.79558,18.92765,57.60408,11.61143,550007.416494016
Tanker,MARY A,54.4532,18.68288,54.46228,18.70129,1562.34347522344
Tanker,MIDVOLGA-3,54.6349,19.80475,54.63269,19.9117,6895.36540900195
Tanker,MINERVA ALICE,54.38025,18.65993,54.38085,18.65798,142.982267686783
Tanker,MINERVA GEORGIA,54.45885,18.99556,54.79312,18.9965,37210.8154951885
Tanker,MOZART,57.98956,11.74726,57.99975,11.75925,1336.84495281362
Tanker,MUDYU,59.89725,30.21608,59.89565,30.21389,216.044130760936
Tanker,MURRAY STAR,54.4347,18.93194,54.43482,18.95198,1297.59278597634
Tanker,NARVA,59.87667,30.23727,59.877,30.23755,39.9272665781688
Tanker,NATALIJA GONCHAROVA,54.68639,20.25204,54.68644,20.25201,5.89124031032864
Tanker,NAUTILUS,57.6547,11.73835,57.65019,11.71205,1644.96473449794
Tanker,NAVIG8 STRENGTH,55.73403,20.87363,55.73472,20.84857,1572.54380328061
Tanker,NAVIG8 UNIVERSE,55.73515,20.88543,55.73533,20.86695,1158.40472302408
Tanker,NEMAN,54.69017,20.38373,54.69002,20.36808,1007.09889759029
Tanker,NEPTUNUS,54.79743,18.89334,57.60192,11.63235,546950.420984384
Tanker,NEVA LUX,59.86999,30.2171,59.8893,30.20815,2206.95661616947
Tanker,NIMBUS,57.60022,11.64145,57.60243,11.66862,1639.14338070304
Tanker,NIMBUS SPB,59.90722,30.07085,59.90298,30.09234,1289.07632184605
Tanker,NISSOS SCHINOUSSA,54.464,18.99896,54.51771,18.99717,5980.08994233369
Tanker,NORDEN,57.60086,11.60686,57.60181,11.65823,3065.82792651607
Tanker,NORDIC NORA,57.9215,11.60817,57.61167,11.60717,34490.168937675
Tanker,NORTHERN KATTEGAT,57.68316,11.87161,57.60485,11.68306,14218.7845377564
Tanker,NORTHERN OCEAN,57.61015,11.60678,57.61041,11.62854,1297.89551427155
Tanker,OLJAREN,57.60109,11.82034,57.60519,11.61014,12545.2197731737
Tanker,ORAKAI,59.91048,30.0548,59.91547,30.03042,1469.58055726866
Tanker,ORAMALIA,54.56119,18.85031,54.57315,18.87065,1869.68592252025
Tanker,PACIFIC,57.65675,11.7552,57.66047,11.77207,1086.63918359059
Tanker,PALLAS GLORY,57.65783,11.75497,57.6508,11.71328,2603.41192403802
Tanker,PATANI,57.97335,11.72842,57.9618,11.71457,1523.76264640488
Tanker,PATRICIA,57.67567,11.80362,57.68377,11.85105,2963.40875321059
Tanker,PATRICIA ESSBERGER,54.63329,19.89349,54.65217,19.85804,3103.55263645035
Tanker,PEGAS,59.88622,30.18645,59.88995,30.20546,1139.97855226445
Tanker,POLA,54.46717,18.69933,54.45984,18.68967,1027.83895467506
Tanker,PORONIEC,54.79846,18.62115,54.73298,18.99408,25035.1373227369
Tanker,PRINS MAURITS,54.46178,18.87786,54.45961,18.87485,310.299720886303
Tanker,PROCIDA,57.652,11.71765,57.64052,11.69327,1934.55931944419
Tanker,PROSPERO,57.6049,11.64158,57.60313,11.61802,1418.89817077406
Tanker,RAMAVA,54.68563,20.23223,54.68336,20.16533,4312.51828845574
Tanker,RAMONA,54.4653,18.99847,54.77287,18.99142,34241.5510148613
Tanker,ROMANKA,54.38083,18.64951,54.53517,18.59146,17586.9005915192
Tanker,RONDO,59.89754,30.21635,59.90585,30.22738,1111.25780269629
Tanker,SAKURA PRINCESS,55.7297,20.94663,55.73037,20.93057,1009.4515890145
Tanker,SALTSTRAUM,54.68433,20.28833,54.692,20.41883,8440.39392965027
Tanker,SAMRAA ALKHALEEJ,55.96786,20.80003,55.97897,20.80276,1248.39636958801
Tanker,SBORSCHIK-1,59.88235,30.18598,59.87408,30.20304,1325.07701209281
Tanker,SBORSHCHIK-3,59.88607,30.1843,59.88759,30.19505,623.775932039314
Tanker,SCANDINAVIA,57.67654,11.80368,57.68291,11.83696,2103.83481844875
Tanker,SCF BALTICA,55.9705,20.8,55.975,20.80167,511.625516757685
Tanker,SCF PECHORA,59.91208,30.04787,59.91606,30.02794,1197.17874475378
Tanker,SCORPIUS,57.65641,11.74777,57.64573,11.70345,2895.24621131725
Tanker,SEABASS,55.76583,20.80123,55.77108,20.819,1256.91856974788
Tanker,SEAEMPRESS,57.65883,11.76585,57.66497,11.7813,1146.10612412832
Tanker,SEALING,55.73785,20.86011,55.73885,20.83035,1868.37441365525
Tanker,SEAMARLIN,54.5336,18.56182,54.53357,18.5618,3.58072552092579
Tanker,SELANDIA SWAN,54.63252,19.90066,54.63334,19.92978,1878.51166096737
Tanker,SESKAR,59.88647,30.20475,59.88652,30.19122,755.679369894512
Tanker,SEVERYANKA,59.90929,30.22433,59.90923,30.22445,9.45873015802004
Tanker,SKAT,59.87009,30.21099,59.89449,30.22872,2891.111340626
Tanker,SLV-415,59.88434,30.23039,59.88964,30.21248,1161.3059552612
Tanker,SOLSTRAUM,57.60824,11.60952,54.73861,18.998,557803.19502805
Tanker,SONGA SAPPHIRE,54.74522,18.99899,54.51141,18.99715,26027.8802157911
Tanker,STAR CURACAO,54.65587,19.84729,54.63261,19.90474,4516.55435589337
Tanker,SULA,59.87646,30.22246,59.86736,30.22377,1015.64838391888
Tanker,SUULA,54.42691,18.92613,54.42949,18.95248,1730.35052930985
Tanker,TANKSKAR,57.61846,11.76256,57.64314,11.83343,5038.59096459777
Tanker,TARNBRIS,57.93065,11.6717,57.95887,11.71158,3926.84679921595
Tanker,TAYMEN,59.86553,30.22851,59.86553,30.22851,0
Tanker,TEKOS,59.88132,30.2292,59.8825,30.22828,141.051615468122
Tanker,TERNHAV,57.64655,11.7016,57.63419,11.68644,1645.90463488358
Tanker,TERNVAG,57.63937,11.69865,57.64993,11.71384,1483.50788919045
Tanker,THUN GALAXY,54.69195,18.99655,55.74546,20.80074,163940.203225497
Tanker,THUN GLORY,57.63115,11.69187,57.64325,11.70208,1477.98723968905
Tanker,THUN GOTHENBURG,57.63797,11.69818,57.65,11.71504,1674.0074989191
Tanker,TRANS FJELL,57.95829,11.71159,57.96871,11.72754,1494.17961578446
Tanker,TRANS HOLM,54.53583,18.52183,54.53633,18.52317,102.898960586754
Tanker,UMAR1,57.60098,11.6855,54.65694,19.80968,600612.235428576
Tanker,UZAVA,55.82467,20.82783,55.81517,20.83683,1197.99000625649
Tanker,VALERIY ZELENKO,59.90856,30.06484,59.90351,30.08987,1505.97774038034
Tanker,VELTA,59.90387,30.08873,59.90751,30.07009,1116.57254175956
Tanker,VENERE,57.60433,11.608,57.60266,11.621,797.32442258985
Tanker,VINGA SAFIR,57.60564,11.60405,57.60131,11.66084,3421.20971365283
Tanker,VOVAN,59.90979,30.26321,59.90976,30.25844,266.241744988206
Tanker,WAASMUNSTER,57.95479,11.70541,57.96463,11.71845,1338.99922311158
Tanker,WISBY VERITY,57.94907,11.69939,57.9367,11.68279,1690.60969858423
Tanker,WISBY WAVE,57.63855,11.69439,57.62356,11.6811,1847.1124265828
Tanker,XANTHIA,55.73485,20.96872,55.73166,21.00007,1996.7868227889
Tanker,ZANA,59.88531,30.20629,59.88605,30.18725,1066.60767126692
Tanker,ZAPADNYY,55.66176,21.14853,55.67601,21.14052,1664.10438244492
Tug,11-00,57.62947,11.77787,57.64068,11.80609,2094.07530139099
Tug,A.BARAUSKAS,55.71912,21.10164,55.7191,21.10164,2.22638981546312
Tug,AGIS,54.40693,18.66183,54.40404,18.67805,1099.08070612791
Tug,AJAKS,54.39446,18.67523,54.3878,18.66668,925.61570627011
Tug,AKADEMIK KARPINSKIY,59.89577,30.12897,59.89908,30.11263,983.899206600287
Tug,AKMAL,59.89101,30.20722,59.88607,30.1863,1291.27411301078
Tug,AKUL,54.40788,18.76895,54.40267,18.72794,2719.7315365161
Tug,ALEXANDR UVAROV,54.63669,19.91264,54.63717,19.91232,57.2727378723246
Tug,ALVBJORN,57.83063,12.00929,57.83053,12.00927,11.1948839674715
Tug,APHRODITE I,54.79731,18.44141,54.79682,18.43566,373.003554607637
Tug,ARES,54.40098,18.7215,54.39855,18.70049,1388.1026518477
Tug,ARGO,59.93031,30.27219,54.39026,18.6686,930963.721353987
Tug,ARKTUR,59.88879,30.16287,59.89547,30.13002,1979.37319245788
Tug,ASKHOLMEN,57.68569,11.89121,57.68576,11.8914,13.7315407775367
Tug,AURA,55.85232,20.83309,55.86265,20.81833,1474.02805606629
Tug,BALTIETS,59.91619,30.25018,59.91512,30.23581,810.667373026839
Tug,BATMAN 7,57.71906,11.9775,57.71906,11.9775,0
Tug,BAZALT,54.79522,18.93036,54.79854,18.44975,30844.3899461874
Tug,BBAS,54.52934,18.52587,54.52933,18.52584,2.23488598033685
Tug,BESS,57.92759,11.6645,57.91573,11.63872,2016.41517528837
Tug,BGK-326 RIF,59.91182,30.24543,59.91169,30.24557,16.445986875
Tug,BISON,57.99487,11.7555,57.97403,11.73161,2714.72299501633
Tug,BIZON-O-158,54.68669,20.18929,54.68539,20.22924,2574.81056376962
Tug,BJONN,57.73257,11.99474,57.73267,11.99475,11.1478018351359
Tug,BOA BISON,54.52405,18.5547,54.52401,18.55471,4.49940374563181
Tug,BOA JARL,54.52425,18.55554,54.52428,18.55553,3.40150098173099
Tug,BOA ODIN,54.55005,18.81425,54.54596,18.80762,624.940264964301
Tug,BOATMAN 1,57.69287,11.90615,57.68928,11.89032,1023.13829135103
Tug,BOATMAN 9,57.68832,11.88379,57.69125,11.90032,1036.21673768588
Tug,BOB,57.99959,11.75667,57.92059,11.60003,12763.662796562
Tug,BOGATYR 4,59.91067,30.23533,59.90816,30.23317,304.309576572987
Tug,BREST,59.86636,30.22672,59.88323,30.18356,3056.36973768376
Tug,BRYZA,54.79757,18.44621,54.79655,18.42936,1087.25724599386
Tug,BUMER,54.52508,18.5889,54.53566,18.62517,2622.25127255164
Tug,C,59.93028,30.27216,59.93031,30.27212,4.01628462603044
Tug,CENTAUR II,54.5355,18.56733,54.53333,18.59983,2112.9995287522
Tug,CHARLIE,57.7788,11.69685,57.77219,11.70526,889.185180378568
Tug,CRESTWAY,54.37539,18.65903,54.37536,18.65902,3.40194878598461
Tug,CRUM,57.67721,11.65609,57.67876,11.64534,662.696624428905
Tug,DC OSTEND,54.79695,18.79787,54.79846,18.7637,2199.18362824162
Tug,DIRTY,57.70601,11.66452,57.6799,11.86126,12060.5921013722
Tug,DMITRY SIROTKIN,59.91247,30.23853,59.92026,30.00703,12946.8625779685
Tug,DUKE 2,55.04501,20.0843,55.0174,20.24331,10600.2873702186
Tug,EILEEN MCLOUGHLIN,54.53,18.80567,54.58433,18.89067,8166.11662254235
Tug,ELBRUS,59.91124,30.05233,59.91627,30.02777,1480.53373585807
Tug,ELENA,54.69142,19.84605,54.65362,20.11025,17519.4787368411
Tug,ERMAK,59.88925,30.20915,59.88913,30.20906,14.2726095093572
Tug,ERRIE,55.00977,20.00268,55.01091,20.17979,11306.3098739253
Tug,FAIRPLAY IV,54.51325,18.57434,54.52682,18.55918,1800.38334983126
Tug,FAIRPLAY VII,54.53508,18.54856,54.53096,18.53252,1133.02071530841
Tug,FAIRPLAY-26,54.53364,18.59477,54.53596,18.56898,1685.63935592279
Tug,FATBOY,57.68089,11.80393,57.67856,11.75736,2783.82198769466
Tug,FORTUNA,55.00997,20.24178,55.01358,20.27984,2462.43947014217
Tug,FRANKLIN,57.74832,11.61463,57.74839,11.63724,1343.15606282205
Tug,FROG RANA,57.71275,11.95854,57.66158,11.83507,9296.5752084893
Tug,FROG TAURUS,57.7191,11.97848,57.72183,11.98094,337.260871846462
Tug,GIBRALTAR,59.91009,30.22641,59.90993,30.22643,17.8460610337298
Tug,GKSS-ONLINE,57.63538,11.8303,57.66776,11.84953,3782.13554363611
Tug,GLADIATOR,54.68574,20.24949,54.68363,20.31729,4369.32228693517
Tug,GLADIUS,54.96205,20.36459,54.96709,20.23661,8197.98806817815
Tug,GLANFORD,54.6391,19.9586,54.63375,19.90582,3452.24690412041
Tug,GOTE II,57.63423,11.79288,57.68,11.85214,6197.99241137424
Tug,GOTHEBORG,57.7006,11.91888,57.70055,11.91897,7.72266824815423
Tug,GRANIT,54.35615,18.67468,54.35593,18.67478,25.3348919362713
Tug,GRIFON 3,59.88846,30.21343,59.88117,30.18697,1686.030434383
Tug,GRIFON 5,59.91667,30.02541,59.92064,30.00557,1191.95923252332
Tug,GRIFON7,59.92081,30.00482,59.86989,30.2174,13153.5883627393
Tug,GRIPHON 8,59.88857,30.21397,59.87959,30.23108,1382.97145918097
Tug,HERKULES,54.4061,18.75652,54.40102,18.73049,1778.91777381341
Tug,HEWELIUSZ,54.46995,18.74134,54.47963,18.7627,1752.1661913443
Tug,HORYZONT II,54.52839,18.52999,54.52862,18.53052,42.7518790075082
Tug,HUGIN EXPLORER,57.94002,11.68876,57.95451,11.70733,1950.73843455405
Tug,HYDROGRAF 10,54.47264,18.63902,54.46761,18.64893,851.187735711934
Tug,ICEBEAM,57.68303,11.85268,57.68615,11.87203,1202.74075598577
Tug,IKAR,54.37982,18.66038,54.36386,18.66486,1800.25383034843
Tug,IMOR,54.79881,18.56626,54.79852,18.43365,8509.67965314201
Tug,INGEMAR,57.6234,11.81051,57.64155,11.81408,2031.61931157075
Tug,INZ. ST. LEGOWSKI,54.77827,18.53787,54.35652,18.67622,47790.4487550447
Tug,IVAN KRUZENSHTERN,59.92099,30.00418,59.88471,30.20906,12129.1658002443
Tug,JAMES COOK,54.37517,18.6615,54.37533,18.6615,17.8111185265375
Tug,JURINIS,55.66536,21.14813,55.66532,21.14814,4.49682864132874
Tug,K10,57.6884,11.85577,57.69098,11.85578,287.204902591152
Tug,KAMBR,54.79793,18.44127,54.79666,18.43039,712.365818354189
Tug,KAPITAN MARTYSHKIN,54.63297,19.90732,54.63588,19.96367,3645.09571129243
Tug,KAPITAN NIKOLAEV,59.88943,30.20942,59.88928,30.20958,18.9383413768053
Tug,KAPITAN PLAKHIN,59.91276,30.2436,59.91299,30.24339,28.1581383238093
Tug,KAPITAN POINC,54.53566,18.56371,54.53081,18.57949,1153.40935259282
Tug,KAPITAN SOROKIN,59.88205,30.19553,59.88229,30.19494,42.4250979471955
Tug,KAPITAN ZARUBIN,59.91253,30.24026,59.92069,30.00488,13165.570541008
Tug,KARU,59.91271,30.2402,59.91943,30.01164,12775.7684072264
Tug,KBV 001,57.68859,11.89151,57.69227,11.90352,823.684435301293
Tug,KBV 032,57.99781,11.70603,57.74871,11.60501,28367.2127638435
Tug,KBV 048,57.68169,11.87062,57.68169,11.87062,0
Tug,KBV 316,57.65024,11.61424,57.74836,11.61581,10923.0676879677
Tug,KBV 475,57.69167,11.70144,57.70366,11.67327,2142.35293433807
Tug,KBV 490,57.68163,11.87057,57.68163,11.87052,2.97569982764714
Tug,KBV 494,57.71445,11.95784,57.71406,11.95755,46.7136666557604
Tug,KBV 497,57.66702,11.79772,57.66702,11.79772,0
Tug,KENDRICK,55.01933,20.22883,54.65533,19.81717,48356.6307091402
Tug,KLASCO-3,55.72545,21.09185,55.67769,21.13985,6110.03107173683
Tug,KLASCO1,55.68169,21.13725,55.64559,21.16181,4304.36293497518
Tug,KLASCO2,55.70633,21.11933,55.6798,21.1373,3161.20808303823
Tug,KOL-110,54.61851,18.8991,54.61981,18.88518,908.808679003611
Tug,KOL-149,54.79658,18.41391,54.79717,18.43536,1378.07926183565
Tug,KOL-48,54.79836,18.43598,54.79544,18.42675,675.647377078157
Tug,KOMMUNAR,54.63287,19.90823,54.64821,19.86672,3172.84519543591
Tug,KONSTANTIN,59.9145,30.25952,59.91463,30.25963,15.7195729712824
Tug,KONTROLER 19,54.79565,18.44004,54.77155,18.56968,8743.87254212054
Tug,KOZIOROZEC-O-01,54.36521,18.64994,54.36619,18.64973,109.939990173954
Tug,KUBAN,54.98218,20.30837,54.98685,20.39023,5254.57684183077
Tug,LIGER,54.52992,20.19698,54.69183,20.19699,18023.738765869
Tug,LOOKMAN,59.88041,30.19512,59.89045,30.20623,1278.35117911207
Tug,LOTAS,55.67081,21.14397,55.71148,21.11581,4859.94011158409
Tug,LOTSMAN FEDOROV,59.91486,30.03421,59.91118,30.0523,1089.48195372552
Tug,LOTSMAN SARZHIN,54.63261,19.90459,54.65726,19.83738,5125.64788290996
Tug,LOTSMAN-3,54.70002,19.851,54.65893,20.12295,18090.3440348629
Tug,LTU SAR SHIP SAKIAI,55.71511,21.11155,55.72447,21.09727,1373.79565790914
Tug,M/S ALO,57.87987,11.64797,57.88801,11.65618,1028.18770991399
Tug,MAJA,54.36606,18.64834,54.40533,18.66537,4508.75543333299
Tug,MARIEKE,55.72043,20.80652,54.63621,19.92242,133134.612050079
Tug,MB-96,59.88697,30.1716,59.89084,30.15206,1173.20209313073
Tug,MB97,54.63956,19.89552,54.63951,19.89557,6.43084518068432
Tug,MERITUS,54.95612,20.21144,54.95604,20.21149,9.46168269568734
Tug,MERKURIY,59.89271,30.21037,59.88179,30.18715,1777.48469379504
Tug,MEWO NAVIGATOR,54.78692,18.54412,54.78175,18.55804,1062.86734080904
Tug,MINGE,55.72835,21.06114,55.71274,21.11336,3706.67078527542
Tug,MINTIS,55.70301,21.12916,55.70308,21.12929,11.2790075738708
Tug,MOSCHNIY,59.90916,30.22439,59.90925,30.22437,10.0807463424691
Tug,MOSCHNYI,59.91095,30.23809,59.91534,30.25696,1160.92510443898
Tug,MUDYUG,59.9334,30.28848,59.90029,30.22003,5307.86956302791
Tug,MURMANSK,59.87415,30.20612,59.87437,30.20618,24.718655400728
Tug,MUSHA,55.69953,21.1211,55.69104,21.12764,1030.32785945155
Tug,MUSON,59.8917,30.1484,59.89607,30.1271,1284.99469254408
Tug,NADEZHDA,54.68936,20.36606,54.6896,20.38051,930.147296197195
Tug,NADEZHNIY,54.64835,19.90652,54.6484,19.9065,5.71309568244095
Tug,NATO WARSHIP M53,55.72988,21.04256,55.72824,21.06781,1593.28471624606
Tug,NEFTEGAZ-31,54.66799,19.82082,55.17938,19.82133,56927.6837452597
Tug,NEPTUN W,54.79548,18.41867,54.79816,18.42727,627.364770426828
Tug,NERO,54.98031,20.40794,54.98509,20.30384,6670.93058905207
Tug,NEVSKAYA ZASTAVA,59.85715,30.49612,59.95117,30.40012,11758.3728683711
Tug,NZ55,55.70774,20.80053,55.62598,20.80734,9111.51890679854
Tug,OCEANIA,54.395,18.67381,54.39485,18.67397,19.6557394904274
Tug,OCEANOGRAF,54.53573,18.56471,54.53331,18.57825,915.086291338938
Tug,OCKERO MARITIME 1,57.66461,11.68068,57.65945,11.63523,2766.65920712941
Tug,OCKERO MARITIME 2,57.73568,11.66413,57.72351,11.66417,1354.76028896096
Tug,ODISSEY,54.83105,19.80945,54.68392,19.80845,16378.562644349
Tug,ODYS,54.52943,18.52593,54.52919,18.526,27.0966340349318
Tug,OLEG STRASHNOV,54.69018,20.1966,54.68774,20.21223,1041.73565030928
Tug,OPAL,54.53518,18.55029,54.53458,18.55618,386.244366000714
Tug,ORION,59.91061,30.22738,59.91061,30.22738,0
Tug,ORP ARCTOWSKI,54.54216,18.55809,54.49074,18.63225,7465.14086198824
Tug,ORP BALTYK,54.74684,18.985,54.72737,18.96446,2537.7451516584
Tug,ORP BIELIK,54.73008,18.74678,54.73008,18.74678,0
Tug,ORP CZERNICKI,54.42844,18.87161,54.41934,18.8949,1816.94973737463
Tug,ORP FLAMING,54.54711,18.58494,54.54266,18.58431,497.03930860681
Tug,ORP KORMORAN,54.4961,18.69812,54.50742,18.67815,1803.96944924886
Tug,ORP MACKO,54.53841,18.53372,54.53841,18.53372,0
Tug,ORP ZBYSZKO,54.58204,18.79522,54.56668,18.78334,1873.83888778865
Tug,PELICAN,55.65639,21.15453,55.65722,21.15726,194.757824464022
Tug,PETER THE GREAT,54.96026,20.2185,54.96758,20.22197,844.495083596288
Tug,PILOT 115 SE,57.68347,11.87015,57.68067,11.84763,1376.00649897729
Tug,PILOT 20,54.45253,18.83314,54.43705,18.76387,4803.6361641426
Tug,PILOT 218 SE,57.69853,11.69123,57.68736,11.70803,1595.36392091823
Tug,PILOT 729 SE,57.70667,11.66305,57.70665,11.66304,2.304455275111
Tug,PILOT 745 SE,57.67402,11.83795,57.63811,11.6481,11992.548523578
Tug,PILOT 746 SE,57.68192,11.87159,57.60663,11.69077,13648.8037335419
Tug,PILOT DANGE,55.69197,21.12992,55.72799,21.07304,5366.86196421175
Tug,PILOT-3,54.52387,18.54965,54.52378,18.54962,10.2045069146692
Tug,PILOT-5,54.53472,18.5624,54.53499,18.60472,2733.54687882595
Tug,PILOT21,54.41735,18.65637,54.41284,18.77338,7596.25649913532
Tug,PIONER,54.6325,19.90624,54.63776,19.98837,5323.90361981762
Tug,POLIS 59-3720,57.67619,11.75885,57.66033,11.80551,3291.51584132647
Tug,POLIS 59-3780,57.68171,11.87113,57.68171,11.87113,0
Tug,POLSTJARNAN IV,57.68392,11.69271,57.67645,11.74538,3243.14664072541
Tug,POSEIDON I,55.70381,21.12285,55.63623,20.80125,21545.9071332764
Tug,PROFESSOR LOGACHEV,59.90714,30.2182,59.90701,30.21803,17.3049468471712
Tug,R-20,54.53327,18.57774,54.52128,18.58479,1410.28310376422
Tug,R3,54.53547,18.56106,54.59788,18.75448,14286.0381400094
Tug,RB-20,59.90551,30.08045,59.90933,30.06159,1135.32515717729
Tug,RB-394,54.63343,19.92976,54.64704,19.90765,2079.47208589458
Tug,RB-395,54.65401,19.85177,54.63713,19.89149,3174.39387030884
Tug,RB-413,54.63433,19.94286,54.64635,19.90563,2746.40971111965
Tug,REDUT,59.8552,30.49751,59.8551,30.49761,12.4568081659855
Tug,RESCUE 8-45,57.82393,11.61053,57.79782,11.6342,3227.74415358958
Tug,RESCUE B. RASMUSSEN,57.98885,11.73763,57.97419,11.69244,3126.80761065274
Tug,RESCUE BERGESEN D.Y,57.94052,11.69243,57.95715,11.71138,2163.40030692835
Tug,RESCUE HANS LAURIN,57.66143,11.83391,57.63713,11.81797,2866.86564733279
Tug,RESCUE LARS LINDFELT,57.67569,11.73641,57.67309,11.79943,3762.46989338045
Tug,RESCUE LIVBOJEN,57.61107,11.85215,57.61055,11.80276,2945.70589821292
Tug,RESCUE MARIANNE BRAT,57.7095,11.66683,57.73567,11.66483,2915.6561777269
Tug,RESCUE MARTA COLLIN,57.77215,11.61888,57.70799,11.66604,7672.28215585876
Tug,RESCUER AMBULANCE,57.60464,11.79376,57.62031,11.808,1940.05474068053
Tug,REUSHINKA,54.6376,19.9564,54.6342,19.90677,3219.90440103254
Tug,RRRRGSDGSD,59.9412,30.25646,59.94121,30.25644,1.57569459703797
Tug,SANKT-PETERBURG,59.91012,30.05802,59.91441,30.03653,1290.88420999372
Tug,SAR 111261105,54.67845,18.74161,54.59363,18.80848,10378.5911809838
Tug,SAR 111265121,57.60648,11.62348,57.67288,11.62489,7392.0916049049
Tug,SAR 111265582,57.72334,11.6312,57.90428,11.64585,20160.8726024894
Tug,SAT AIS,59.94105,30.25609,59.94096,30.25619,11.4658656099954
Tug,SEA GOLF,54.97065,20.27675,54.9776,20.3772,6464.35606013738
Tug,SEACURE,57.76966,11.62594,57.79236,11.61003,2697.61648118141
Tug,SEMYON DEZHNEV,59.90769,30.06933,59.90117,30.10169,1946.7131796828
Tug,SERVAL,55.63261,20.80253,54.73668,18.99782,151988.291762511
Tug,SERWAL,54.74669,18.72311,54.73917,18.74372,1566.75979590394
Tug,SEVEN OSPREY,54.38026,18.65623,54.38034,18.65822,129.324165884714
Tug,SIGULDA,54.63924,19.95564,54.63247,19.90742,3196.84318302949
Tug,SJOEBEFAELSSKOLAN,57.70535,11.93741,57.70664,11.93659,151.657372134681
Tug,SJOGRIP,57.71592,11.96989,57.71847,11.97691,504.761098413557
Tug,SKRUNDA,54.63682,19.95438,54.63401,19.90723,3053.89859118809
Tug,SM PRC 105,54.38186,18.66007,54.3717,18.66387,1157.53206558243
Tug,SM PRC 108,54.45215,18.81922,54.4463,18.80798,976.389604699783
Tug,SM PRC 112,54.4085,18.74618,54.419,18.76442,1662.03656788299
Tug,SMILTE PILOT,55.71221,21.11378,55.72912,21.03585,5236.14428298671
Tug,SMPRC110,54.40457,18.66957,54.39933,18.67995,890.313540282627
Tug,SNOKEN,57.68698,11.89577,57.68289,11.78897,6371.80201384288
Tug,SOLL TENGIZ,55.70755,21.11705,55.72589,21.09205,2574.01330842183
Tug,SOUND PROVIDER,57.60955,11.6032,57.76711,11.60489,17539.7872384209
Tug,SOUND SURVEYOR,57.7206,11.98217,57.71653,11.97087,810.320007313487
Tug,SPK-1DMAG,59.91835,30.25721,59.91902,30.25528,130.993619950636
Tug,SPK-49150,54.6577,20.12033,54.64697,19.91117,13523.2499503686
Tug,SSMB 2222 RAKETEN,57.73458,11.66465,57.71448,11.66623,2239.49207716471
Tug,STRAZAK 6,54.40376,18.72211,54.39935,18.69473,1840.86721973396
Tug,SUPPLIER,57.62333,11.80992,57.63467,11.82315,1488.39285851722
Tug,SVIR,59.91217,30.24499,59.88486,30.20872,3652.79645525462
Tug,SVITZER GAIA,57.83505,11.60139,57.92107,11.61045,9590.70732551944
Tug,SVITZER GEO,57.68212,11.82458,57.67896,11.80486,1225.23435187795
Tug,SVITZER ODEN,57.91877,11.60117,57.83373,11.60234,9466.86283349982
Tug,SVITZER TYR,57.60295,11.60271,57.60198,11.65766,3279.21173365717
Tug,SYLUR,54.3572,18.67241,54.35753,18.67228,37.6909388889259
Tug,SZTORM,54.60034,18.77289,54.58138,18.79041,2394.09423568491
Tug,T-2,55.67996,21.13388,55.6799,21.13387,6.70859389025755
Tug,T-3,55.71515,21.11295,55.72245,21.10169,1076.48966541456
Tug,TAK-10,55.65612,21.15227,55.69945,21.12778,5062.4870396231
Tug,TAK-11,55.68584,21.13555,55.72777,21.08242,5735.08719702848
Tug,TAK-4,55.9986,20.86596,55.99269,20.96819,6398.3522777286
Tug,TAK-6,55.72177,21.10307,55.6871,21.13388,4316.2511685901
Tug,TAK-9,55.70503,21.13632,55.70056,21.12593,819.975464820443
Tug,TARNIKA,54.68572,20.22558,54.68593,20.17527,3237.4971798363
Tug,TAURUS,54.4236,18.65058,54.40378,18.67478,2706.58431220157
Tug,TAYFUN,54.62874,19.8006,54.66104,19.80579,3611.1276391791
Tug,TIDEWAY ROLLINGSTONE,55.00588,19.81804,54.66067,19.80943,38432.5661466211
Tug,TOFTE,57.73233,11.99434,57.69865,11.99432,3749.24063850435
Tug,TORNADO,59.90895,30.22413,54.63799,19.99073,848919.564050678
Tug,TRELLE,57.85458,11.64596,57.82967,11.6354,2842.68060399317
Tug,TUCANA,54.52044,18.5503,54.40438,18.67282,15157.9476345047
Tug,TYPHOON,59.88581,30.20715,59.90749,30.22942,2714.88625078888
Tug,TYTAN,54.40533,18.66829,54.42708,18.65045,2682.83909025711
Tug,U/F ASTERIX,57.6445,11.84489,57.64404,11.85719,734.563520135705
Tug,URAN,59.91312,30.24447,59.91293,30.24434,22.3603248530848
Tug,VAKARIS,55.9188,20.83437,55.99551,20.936,10631.635092607
Tug,VEGA,54.37885,18.65687,54.39832,18.68082,2666.01260803631
Tug,VEJUNAS,55.66246,21.15282,55.66245,21.15283,1.27807762304574
Tug,VIKHREVOY,59.90341,30.09058,59.89371,30.13853,2886.63152832399
Tug,VIRTUS,54.40742,18.7589,54.40574,18.72058,2489.83373177137
Tug,VLADIVOSTOK,59.87511,30.2042,59.87524,30.20419,14.4823144659321
Tug,VODOLAZ GRITSAY,54.66993,20.14089,54.68547,20.23837,6508.14464106209
Tug,WDZYDZE,54.5512,18.63158,54.55427,18.6539,1480.95313709152
Tug,WEZYR 1,54.35209,18.73997,54.35435,18.67847,3997.76785161355
Tug,WIATR,54.39991,18.84552,54.36809,18.78008,5526.65872811171
Tug,YASNYY,54.65298,20.10669,54.63329,19.89341,13912.5887211338
Tug,ZAG-27,54.39503,18.87674,54.39051,18.85907,1250.90527725405
Tug,ZEUS,54.45427,18.68326,54.44609,18.67191,1169.96382710056
Tug,ZODIAK,54.53156,18.69515,54.53039,18.72245,1768.23454333097
Tug,ZORKIY,54.64502,19.8725,54.64273,20.03715,10609.1190776421
Tug,[SAT-AIS],54.64667,19.91167,55.08167,20.46,59823.9999824367
Unspecified,0,57.7209,11.98238,57.72177,11.98145,111.517803779683
Unspecified,261535003,54.52911,18.53196,54.52919,18.53191,9.47317577940445
Unspecified,BARSWEEP ONE,57.71992,11.98157,57.71737,11.97379,542.704279790412
Unspecified,BLACKPEARL 7.3V,59.94113,30.25608,59.94135,30.2575,82.8782347797131
Unspecified,BLACKPEARL 7.4V,59.94093,30.25708,59.94203,30.25568,145.216892230237
Unspecified,BLACKPEARL 7.5V,59.94105,30.25913,59.94126,30.25561,197.658000940212
Unspecified,BLACKPEARL 7.6V,59.94097,30.2567,59.94172,30.25882,144.71906086236
Unspecified,BLACKPEARL 7.7V,59.94085,30.25669,59.94172,30.2568,97.041979631957
Unspecified,BLACKPEARL 7.8V,59.94113,30.25622,59.94055,30.2558,68.6813140285661
Unspecified,BY ZS,54.44296,18.96178,54.44321,18.96163,29.4751852535686
Unspecified,FROG CYGNUS,57.72092,11.98229,57.68151,11.83942,9563.75958537764
Unspecified,FULDA,54.34574,18.80183,54.32455,18.84987,3909.74214170009
Unspecified,JIYA,59.94104,30.25607,59.88173,30.22525,6822.72917284159
Unspecified,KAPITAN BELYAEV,54.97714,20.34083,54.96532,20.23569,6845.67017812066
Unspecified,KONTROLER 20,54.35363,18.65975,54.3927,18.67264,4428.84010421083
Unspecified,KRYSTYNA,54.68453,20.16931,54.68571,20.22615,3660.03508124996
Unspecified,NILS,57.70549,11.94347,57.68542,11.82417,7440.6574679373
Unspecified,NORTHERN WIND,57.6755,11.71973,57.67743,11.77753,3447.10091604028
Unspecified,PURE ORANGE,57.7072,11.94985,57.6117,11.61837,22420.4231849234
Unspecified,RAMANTENN,57.68105,11.90576,57.68118,11.90571,14.7743132387984
Unspecified,RB-27,59.88595,30.17656,59.88963,30.15819,1104.70007054592
Unspecified,SENSOR,57.62969,11.78536,57.62641,11.76635,1190.41257363264
Unspecified,SOUND CASTOR,57.71217,11.958,57.6145,11.61117,23338.8517507489
Unspecified,SPK-25,59.95633,30.26442,59.95652,30.26436,21.4134179809743
Unspecified,STORMCO,57.72544,11.98736,57.72543,11.98743,4.30727948492134
Unspecified,SVITZER RAN,57.63762,11.68968,57.64591,11.70685,1377.72164387212
Unspecified,TAMINA SPIRIT,57.95872,11.70883,57.94043,11.68542,2461.27360618948
Unspecified,TEST-0192,59.94024,30.25811,59.94027,30.25814,3.73511850098306
Unspecified,TST12,59.94029,30.25811,59.94029,30.25811,0
Unspecified,VEGA,54.65171,20.09799,54.63789,19.89179,13371.0258964608
Unspecified,VTS 2614900,54.52926,18.55957,54.52926,18.55957,0
Unspecified,VTS 2734463,59.8646,30.47185,59.8646,30.47185,0
Unspecified,VTS 2734488,54.89622,19.93811,54.89622,19.93811,0
Unspecified,VTS 2734492,59.93667,30.22583,59.93639,30.22619,37.0753087839539
Unspecified,VTS 2770110,55.72771,21.09569,55.72771,21.09569,0
Unspecified,VTS BALTIYSK,54.62998,19.88548,54.62998,19.88548,0
Unspecified,VTS GAOTEBORG,57.69404,12.05877,57.69397,12.05863,11.4059236328496
Unspecified,VTS HEL,54.59999,18.8129,54.60001,18.81289,2.31789706632851
Unspecified,VTS KLAIPEDA,55.69013,21.13727,55.69002,21.13729,12.3092828318695
